{
"type": "FeatureCollection",
"name": "Area Projek",
"crs": { "type": "name", "properties": { "name": "urn:ogc:def:crs:OGC:1.3:CRS84" } },
"features": [
{"type":"Feature","properties":{"fid":1,"KET":"Area Terpakai","Luas Area Proyek":11755.931928408929},"geometry":{"type":"MultiPolygon","coordinates":[[[[107.356977370000038,-6.948435282999981,0.0],[107.356981610000048,-6.947576387999959,0.0],[107.357440519000079,-6.947833633999949,0.0],[107.35744296300004,-6.948346942999933,0.0],[107.357444149000059,-6.948451483999975,0.0],[107.357359040000063,-6.94866848099997,0.0],[107.357075181000084,-6.949072503999957,0.0],[107.35665395400008,-6.949637871999926,0.0],[107.35623600100007,-6.949336853999966,0.0],[107.356742834000045,-6.948728743999936,0.0],[107.356977370000038,-6.948435282999981,0.0]]]]}},
{"type":"Feature","properties":{"fid":2,"KET":"Area Terpakai","Luas Area Proyek":12368.469755222206},"geometry":{"type":"MultiPolygon","coordinates":[[[[107.337115616603398,-6.919569264201523,0.0],[107.337010463131094,-6.919188955882235,0.0],[107.337444529694395,-6.919085247839441,0.0],[107.337477511022797,-6.919217763574568,0.0],[107.337565742130295,-6.919563158264748,0.0],[107.337581529137793,-6.919589504080892,0.0],[107.337602535867305,-6.919632865050855,0.0],[107.337623214685806,-6.919666001330745,0.0],[107.337684533276004,-6.919741256429258,0.0],[107.337773007901305,-6.919853470577627,0.0],[107.337814722493107,-6.919903593922396,0.0],[107.337856755439205,-6.919900617163364,0.0],[107.337961858822794,-6.920034234822273,0.0],[107.338004547299491,-6.920067655735819,0.0],[107.338044322748502,-6.920097990220998,0.0],[107.338067577845834,-6.920124285449135,0.0],[107.338112505628857,-6.920178856830149,0.0],[107.338169954055559,-6.920242505596083,0.0],[107.338208939347197,-6.920290140374709,0.0],[107.338255043585903,-6.920372983847476,0.0],[107.338300930301997,-6.920476717143423,0.0],[107.338319531967997,-6.920573867710025,0.0],[107.338310987118007,-6.920687261748884,0.0],[107.338283858720899,-6.920868556798695,0.0],[107.338253646098806,-6.921013529388833,0.0],[107.338193146008507,-6.921045083958757,0.0],[107.338123486501601,-6.921061515478494,0.0],[107.337845471589503,-6.92108755541533,0.0],[107.337709295434394,-6.921102070698291,0.0],[107.337813725371802,-6.920654153573209,0.0],[107.337810795639697,-6.920597251515692,0.0],[107.337739726019194,-6.920504553281308,0.0],[107.337668191280201,-6.920423989641492,0.0],[107.337612736436895,-6.920310268855512,0.0],[107.337577159152602,-6.920262521887119,0.0],[107.337511119818302,-6.920181156709961,0.0],[107.337509057501094,-6.920153838683345,0.0],[107.337395930713996,-6.920020410003867,0.0],[107.337305223670398,-6.91990236504679,0.0],[107.3372564642886,-6.919864999939881,0.0],[107.3372194120317,-6.919822103854215,0.0],[107.337170727888704,-6.919748410144059,0.0],[107.337115616603398,-6.919569264201523,0.0]]]]}}
]
}
