{
"type": "FeatureCollection",
"name": "Bangunan Sekunder",
"crs": { "type": "name", "properties": { "name": "urn:ogc:def:crs:OGC:1.3:CRS84" } },
"features": [
{"type":"Feature","properties":{"id":2,"Pemanfaata":"kios cindermata","luas_dmpk":40.47},"geometry":{"type":"MultiPolygon","coordinates":[[[[107.357045410781566,-6.947633203253781],[107.357117373506625,-6.947664777803746],[107.357099744965126,-6.947700776445687],[107.357028763715178,-6.947673024847402],[107.3570345014178,-6.94764803706229],[107.357045410781566,-6.947633203253781]]]]}},
{"type":"Feature","properties":{"id":null,"Pemanfaata":"saung matrial/ saung pasir","luas_dmpk":14.63},"geometry":{"type":"MultiPolygon","coordinates":[[[[107.356983189732674,-6.947626551124259],[107.357001482534699,-6.94759459548406],[107.357031157382764,-6.947609896125894],[107.35700970661739,-6.947641650560141],[107.356983189732674,-6.947626551124259]]]]}},
{"type":"Feature","properties":{"id":null,"Pemanfaata":"kios cinderamata2","luas_dmpk":20.35},"geometry":{"type":"MultiPolygon","coordinates":[[[[107.357046872887167,-6.947900370878394],[107.357010136225426,-6.947956568156632],[107.356993154393962,-6.947944808005036],[107.356989472224853,-6.947942229722465],[107.357023472905894,-6.947888820263101],[107.357046872887167,-6.947900370878394]]]]}},
{"type":"Feature","properties":{"id":null,"Pemanfaata":"saung matrial/saung aduk","luas_dmpk":9.15},"geometry":{"type":"MultiPolygon","coordinates":[[[[107.356980997604154,-6.947851574405798],[107.356980789557014,-6.947833716682191],[107.356992200385548,-6.947834298234821],[107.357003726937819,-6.94783551738939],[107.357021331978999,-6.947837019068221],[107.357019908443903,-6.947856464681505],[107.356980997604154,-6.947851574405798]]]]}},
{"type":"Feature","properties":{"id":null,"Pemanfaata":"saung gazebo","luas_dmpk":9.2},"geometry":{"type":"MultiPolygon","coordinates":[[[[107.357097940644891,-6.948116578791219],[107.357063799328017,-6.9481178241777],[107.357064745800102,-6.948094838426979],[107.357096114589339,-6.948093621534294],[107.357097940644891,-6.948116578791219]]]]}},
{"type":"Feature","properties":{"id":null,"Pemanfaata":"KANDANG DOMBA","luas_dmpk":14.41},"geometry":{"type":"MultiPolygon","coordinates":[[[[107.356833992878819,-6.948614682296315],[107.356836375605639,-6.948571008858479],[107.356862785584653,-6.948563892982174],[107.356862393792866,-6.948606996043415],[107.356833992878819,-6.948614682296315]]]]}},
{"type":"Feature","properties":{"id":null,"Pemanfaata":"kandang dmpk","luas_dmpk":4.87},"geometry":{"type":"MultiPolygon","coordinates":[[[[107.356833992878819,-6.948614682296315],[107.356862621292336,-6.94857886857396],[107.356862393792866,-6.948606996043415],[107.356833992878819,-6.948614682296315]]]]}},
{"type":"Feature","properties":{"id":null,"Pemanfaata":"alat ukur debit air","luas_dmpk":10.24},"geometry":{"type":"MultiPolygon","coordinates":[[[[107.356547626219211,-6.949137690024356],[107.356558870437752,-6.949125365737782],[107.356564726801537,-6.949130946546838],[107.356562150001494,-6.949134667086171],[107.356580421856563,-6.949152572181299],[107.356584872693091,-6.949148154041007],[107.356598225202561,-6.949160710860677],[107.356595414147947,-6.949163733798695],[107.356601973275417,-6.949170012208365],[107.356596351166147,-6.949175825550577],[107.356588855020476,-6.949172570078948],[107.356585809711291,-6.949177453286385],[107.356569880401707,-6.949160245793288],[107.356572457201779,-6.949156757787854],[107.356556996401324,-6.949141410563637],[107.356553716837581,-6.949143270833266],[107.356547626219211,-6.949137690024356]]]]}}
]
}
