{
"type": "FeatureCollection",
"name": "Bangunan Utama",
"crs": { "type": "name", "properties": { "name": "urn:ogc:def:crs:OGC:1.3:CRS84" } },
"features": [
{"type":"Feature","properties":{"fid":1,"id":null,"nama":"misriah","desa":null,"kode peta":null,"nib":null,"luas_1":226.9},"geometry":{"type":"MultiPolygon","coordinates":[[[[107.357000150370723,-6.947639150136355],[107.356930116959987,-6.947760086539034],[107.356890706526997,-6.947750129456108],[107.356840733867969,-6.947717751319749],[107.356829319762355,-6.947705316813414],[107.35682507846586,-6.947688236306196],[107.356824342541501,-6.94768406267174],[107.356891972382712,-6.947577097934497],[107.356977214837428,-6.947626293395267],[107.357000150370723,-6.947639150136355]]]]}},
{"type":"Feature","properties":{"fid":2,"id":null,"nama":"arif","desa":null,"kode peta":null,"nib":null,"luas_1":90.18},"geometry":{"type":"MultiPolygon","coordinates":[[[[107.35697565575262,-6.94768178560211],[107.357014797760939,-6.947704577829413],[107.356989398513988,-6.947749900479136],[107.356975324524228,-6.947776204483841],[107.356964303478193,-6.947837473203831],[107.356909707280309,-6.947825506151296],[107.356928821404949,-6.947762195632113],[107.35697565575262,-6.94768178560211]]]]}}
]
}
