{
"type": "FeatureCollection",
"name": "Bbws Sarinagen",
"crs": { "type": "name", "properties": { "name": "urn:ogc:def:crs:OGC:1.3:CRS84" } },
"features": [
{"type":"Feature","properties":{"fid":1,"id":null,"NAMA":"BBWS SARINAGEN","KODE PETA":"SRG-016","NIB":null,"LUAS":1884.1085287415372,"LUAS TERDAMPAK":1887.3382757288455},"geometry":{"type":"MultiPolygon","coordinates":[[[[107.357166403672409,-6.947679974837174],[107.35716675871447,-6.947680174671447],[107.357231650849741,-6.947716561307567],[107.357222793214632,-6.947730739498611],[107.357207342445903,-6.9477731189126],[107.357187825685415,-6.947905504105039],[107.35716017694142,-6.947994299030301],[107.357155297751319,-6.948023359184018],[107.357194331272268,-6.948163816568324],[107.357158550544725,-6.948415671083383],[107.35717603430929,-6.94850769481484],[107.357117484027867,-6.948625549742865],[107.357098780465748,-6.948711115630998],[107.356994691076565,-6.948825741607679],[107.356889788489028,-6.94891776525887],[107.356754797562402,-6.949043692331311],[107.356675917322136,-6.949100198057979],[107.35659703708194,-6.949151860430701],[107.356537673602176,-6.949209173368804],[107.356473430932311,-6.949276980216122],[107.356448221783296,-6.949304425842019],[107.356405935468956,-6.949345594277859],[107.356361388810512,-6.949427126307046],[107.356319068761721,-6.949396681072842],[107.356349689833507,-6.949317361023716],[107.356413582400165,-6.949267368492971],[107.356436433347341,-6.949235981087454],[107.3564414470099,-6.949229092082525],[107.356441686102116,-6.949228767230437],[107.356473533927868,-6.94918504139896],[107.356484763017249,-6.949169621303213],[107.356517320301165,-6.949124256246735],[107.356543874838223,-6.949087255372548],[107.356573847906603,-6.949045491139247],[107.356590282340562,-6.949022591530266],[107.356734461779695,-6.948985762311267],[107.356899486427437,-6.948829323594879],[107.357001527940838,-6.948697175105195],[107.357004002287553,-6.948684217062855],[107.357016260031273,-6.948620023311081],[107.357026747011673,-6.948565103110113],[107.357035928603878,-6.948519408585274],[107.357061540681229,-6.948524148087827],[107.357081128289792,-6.948488593815796],[107.357082791298538,-6.948461797950875],[107.357083785183505,-6.948437654454229],[107.357088359359992,-6.948349966828565],[107.357097615982852,-6.948172508215093],[107.357105665144559,-6.948018197095926],[107.357112987373441,-6.947877828459188],[107.357126092683131,-6.94778685208962],[107.357166403672409,-6.947679974837174]]]]}}
]
}
