{
"type": "FeatureCollection",
"name": "Bidang Sarinagen",
"crs": { "type": "name", "properties": { "name": "urn:ogc:def:crs:OGC:1.3:CRS84" } },
"features": [
{"type":"Feature","properties":{"fid":1.0,"id":"y6CdSXSxCDiFPk0b1Flx73QITY4gHCUw","NAMA":"AAS","DESA":"SARINAGEN","KODE PETA":"SRG-009","NIB":"SPPT","LUAS":"263.53","layer":"Aas","path":"C:/Users/hp/Downloads/BhumiAtr-20260813T181010Z-1-001/BhumiAtr/Aas.json|layername=Aas","LUAS2":264,"L5":263.584148868802,"PENGUNAAN":"SAWAH","LUAS_NEW":263.584148868802,"LUAS TERDA":null},"geometry":{"type":"MultiPolygon","coordinates":[[[[107.357047829034002,-6.948460181591494],[107.357026747011673,-6.948565103110113],[107.356818221376841,-6.94852751898236],[107.356825252134797,-6.948436327287908],[107.357047829034002,-6.948460181591494]]]]}},
{"type":"Feature","properties":{"fid":2.0,"id":"RCQCrjdfhVa1LJznGvk3Q4v3FuYhZGW0","NAMA":"ARIF","DESA":"SARINAGEN","KODE PETA":"SRG-013","NIB":"SHM","LUAS":"82","layer":"ARIF1","path":"C:/Users/hp/Downloads/BhumiAtr-20260813T181010Z-1-001/BhumiAtr/H_Rahmat.json|layername=H_Rahmat","LUAS2":84,"L5":83.671223888755776,"PENGUNAAN":"PERMUKIMAN","LUAS_NEW":83.671223888755776,"LUAS TERDA":null},"geometry":{"type":"MultiPolygon","coordinates":[[[[107.357052101978368,-6.947773782488693],[107.356982631402047,-6.947762338665072],[107.356911915293097,-6.947756092336817],[107.356925613377697,-6.94769684523343],[107.356993418604418,-6.947697495826986],[107.35705790725946,-6.947774754442857],[107.357052101978368,-6.947773782488693]]]]}},
{"type":"Feature","properties":{"fid":3.0,"id":"qheerBEY4vr6L6K0xiiorwH2C0Z8DXMe","NAMA":"ASEP NANDANG","DESA":"SARINAGEN","KODE PETA":"SRG-007","NIB":"3263","LUAS":"272","layer":"Asep_Nandang","path":"C:/Users/hp/Downloads/BhumiAtr-20260813T181010Z-1-001/BhumiAtr/Asep_Nandang.json|layername=Asep_Nandang","LUAS2":270,"L5":271.02624287945218,"PENGUNAAN":"SAWAH","LUAS_NEW":271.02624287945218,"LUAS TERDA":null},"geometry":{"type":"MultiPolygon","coordinates":[[[[107.357001527940838,-6.948697175105195],[107.356899486427437,-6.948829323594879],[107.35677441803972,-6.948682889391179],[107.356789916448236,-6.948627053985334],[107.357001527940838,-6.948697175105195]]]]}},
{"type":"Feature","properties":{"fid":4.0,"id":null,"NAMA":"H RAHMAT","DESA":"SARINAGEN","KODE PETA":"SRG-012","NIB":null,"LUAS":"50.65","layer":"H RAHMAT","path":"C:/2026/larap cilanang-cijambu/ANYAR/H RAHMAT.shp","LUAS2":48,"L5":50.653620729022805,"PENGUNAAN":"PERKEBUNAN","LUAS_NEW":50.653620729022805,"LUAS TERDA":null},"geometry":{"type":"MultiPolygon","coordinates":[[[[107.357005184167662,-6.947684570849062],[107.357010828082764,-6.947689346406807],[107.357067945750273,-6.947737688651602],[107.357111461021688,-6.947774495751855],[107.35711727233668,-6.947779401858378],[107.357123754932573,-6.94778486788262],[107.3571259614978,-6.947786741302518],[107.357126092683018,-6.947786852091333],[107.357087924349699,-6.947789521425272],[107.35705947829868,-6.947788731761102],[107.357057910526521,-6.947774762659918],[107.357055656175177,-6.947772063844087],[107.357029551439453,-6.947740779302186],[107.357005854999315,-6.947712387102917],[107.356995573365154,-6.947700078693894],[107.356993418604418,-6.947697495826986],[107.356996249250543,-6.947694420088023],[107.357005184167662,-6.947684570849062]]]]}},
{"type":"Feature","properties":{"fid":5.0,"id":"qQCoCc9lnJan9FVL5QM7xhCLcbR3K6Vd","NAMA":"H ENI","DESA":"SARINAGEN","KODE PETA":"SRG-005","NIB":"SPPT","LUAS":"211.86","layer":"H._Eni","path":"C:/Users/hp/Downloads/BhumiAtr-20260813T181010Z-1-001/BhumiAtr/H._Eni.json|layername=H._Eni","LUAS2":212,"L5":211.04622024034325,"PENGUNAAN":"SAWAH","LUAS_NEW":211.04622024034325,"LUAS TERDA":null},"geometry":{"type":"MultiPolygon","coordinates":[[[[107.356781407315438,-6.94865770539514],[107.35677441803972,-6.948682889391179],[107.356774611378299,-6.94882544266085],[107.356695118448215,-6.948773877101189],[107.356664964670131,-6.948766061119017],[107.356669544938484,-6.948735067763465],[107.356662336500904,-6.948704448924602],[107.356678983111692,-6.94860904139837],[107.356781407315438,-6.94865770539514]]]]}},
{"type":"Feature","properties":{"fid":6.0,"id":"4PBHyREwD1it1SzW8x5QpVYCAieFwWIR","NAMA":"HALIM RUSMANA","DESA":"NEGLASARI","KODE PETA":"SRG-001","NIB":"0","LUAS":"635.14","layer":"HALIM","path":"C:/2026/larap cilanang-cijambu/New maps18/HALIM.json|layername=HALIM","LUAS2":635,"L5":635.13919977843761,"PENGUNAAN":null,"LUAS_NEW":635.13919977843761,"LUAS TERDA":null},"geometry":{"type":"MultiPolygon","coordinates":[[[[107.356297892183363,-6.949312850758578],[107.356349689849964,-6.949317360591928],[107.356323353906873,-6.949385837442547],[107.356276576449446,-6.949504208254884],[107.356008544278609,-6.949198222021298],[107.356088965460202,-6.949129493029886],[107.356230622350026,-6.949220640758597],[107.356297892183363,-6.949312850758578]]]]}},
{"type":"Feature","properties":{"fid":7.0,"id":"4IXSZB3d5693AJVc7dgz9J8hGL5VvZVf","NAMA":"HOLID","DESA":"SARINAGEN","KODE PETA":"SRG-004","NIB":"3268","LUAS":"305","layer":"Holid (1)","path":"C:/Users/hp/Downloads/BhumiAtr-20260813T181010Z-1-001/BhumiAtr/Holid (1).json|layername=Holid (1)","LUAS2":307,"L5":306.38833862275351,"PENGUNAAN":"SAWAH","LUAS_NEW":306.38833862275351,"LUAS TERDA":null},"geometry":{"type":"MultiPolygon","coordinates":[[[[107.356787259884968,-6.948866171495536],[107.356706715080293,-6.948955189711356],[107.356710526436771,-6.948977811771158],[107.356734461786544,-6.948985762315305],[107.356590282340562,-6.949022591530266],[107.356676620902448,-6.948769087599957],[107.356695118448215,-6.948773877101189],[107.356774566085846,-6.94882533417622],[107.356787259884968,-6.948866171495536]]]]}},
{"type":"Feature","properties":{"fid":8.0,"id":null,"NAMA":"IIP PERMANA2","DESA":"SARINAGEN","KODE PETA":"SRG-002","NIB":null,"LUAS":"875.8","layer":"IIP PERMANA2","path":"C:/2026/larap cilanang-cijambu/akhir maping report/13-8-2026/sarinagen/IIP PERMANA2.shp","LUAS2":876,"L5":875.60616316302912,"PENGUNAAN":"SAWAH","LUAS_NEW":875.60616316302912,"LUAS TERDA":null},"geometry":{"type":"MultiPolygon","coordinates":[[[[107.356461000279651,-6.948832475021173],[107.356468982849933,-6.948730334258609],[107.356498619154607,-6.948725654107519],[107.356513715052273,-6.948723270170563],[107.356528301776152,-6.948720966642089],[107.356557344988573,-6.948714051252082],[107.356536813841046,-6.948756460178444],[107.356535432569643,-6.948799810825117],[107.35653361692458,-6.948826301065296],[107.356531920582597,-6.94885976527766],[107.356535160946294,-6.948890451318324],[107.35653761849558,-6.948909883174008],[107.356541183275354,-6.94894236071288],[107.356543649032133,-6.948964327082991],[107.356545572322361,-6.948980925148411],[107.356547640644408,-6.94899940793853],[107.356535519079927,-6.949032276293925],[107.356526071709084,-6.949058497855676],[107.356518632168729,-6.94907856207058],[107.356511468910284,-6.949097326909851],[107.356508487340989,-6.94910538950399],[107.356505105731742,-6.949115308891134],[107.35650224545391,-6.949122311640297],[107.356497440750758,-6.949135711266964],[107.35649408157829,-6.94914437313412],[107.356484763017249,-6.949169621303213],[107.356413582400165,-6.949267368492971],[107.356349689849964,-6.949317360591928],[107.356297892183363,-6.949312850758578],[107.356278252452839,-6.949286159517142],[107.356230622350026,-6.949220640758597],[107.35631306675316,-6.949098139927659],[107.356411858611153,-6.949085867867062],[107.356445330420684,-6.949032978278509],[107.356449446833068,-6.948980306834915],[107.356461000279651,-6.948832475021173]]]]}},
{"type":"Feature","properties":{"fid":9.0,"id":"By3lthorxJMdqFF6GZqjyR3Avjl5J0xn","NAMA":"IIP PERMANA2","DESA":"SARINAGEN","KODE PETA":"SRG-003","NIB":"3267","LUAS":"375","layer":"Iip_Permana","path":"C:/Users/hp/Downloads/BhumiAtr-20260813T181010Z-1-001/BhumiAtr/Iip_Permana.json|layername=Iip_Permana","LUAS2":376,"L5":376.27688062103698,"PENGUNAAN":"SAWAH","LUAS_NEW":376.27688062103698,"LUAS TERDA":null},"geometry":{"type":"MultiPolygon","coordinates":[[[[107.356676620902448,-6.948769087599957],[107.356590282340562,-6.949022591530266],[107.356484763017249,-6.949169621303213],[107.356547640644408,-6.94899940793853],[107.356531920582597,-6.94885976527766],[107.356536813841046,-6.948756460178444],[107.356557344988573,-6.948714051252082],[107.356601601436637,-6.948749662292329],[107.356635344857352,-6.948765765956011],[107.356665071128532,-6.948765957566948],[107.356676620902448,-6.948769087599957]]]]}},
{"type":"Feature","properties":{"fid":10.0,"id":"6wwWERQUBr5r6E0xL1B4tavaeNVh3P8o","NAMA":"MISRIAH","DESA":"SARINAGEN","KODE PETA":"SRG-014","NIB":"3235","LUAS":"120","layer":"misriah","path":"C:/Users/hp/Downloads/misriah.json|layername=misriah","LUAS2":121,"L5":120.39619466211298,"PENGUNAAN":"PERMUKIMAN","LUAS_NEW":120.39619466211298,"LUAS TERDA":null},"geometry":{"type":"MultiPolygon","coordinates":[[[[107.356865931079369,-6.947599465780243],[107.357008829645849,-6.947677312408757],[107.357033417147591,-6.947645957485577],[107.357037908905895,-6.947648457106716],[107.356996254238993,-6.947694425568233],[107.356993418604418,-6.947697495826986],[107.356955921764794,-6.947697160147989],[107.356919717897469,-6.947696672828993],[107.356863065561868,-6.947685042038742],[107.356841485990458,-6.947672384108827],[107.356831677094078,-6.947645120872764],[107.356865931079369,-6.947599465780243]]]]}},
{"type":"Feature","properties":{"fid":11.0,"id":"qezXtXNDNVFwH2Fl3JPFifcHMYIbc1Pm","NAMA":"OPING","DESA":"SARINAGEN","KODE PETA":"SRG-008","NIB":"3262","LUAS":"314","layer":"Oping","path":"C:/Users/hp/Downloads/BhumiAtr-20260813T181010Z-1-001/BhumiAtr/Oping.json|layername=Oping","LUAS2":315,"L5":314.91073337662965,"PENGUNAAN":"SAWAH","LUAS_NEW":314.91073337662965,"LUAS TERDA":null},"geometry":{"type":"MultiPolygon","coordinates":[[[[107.357026747011673,-6.948565103110113],[107.357001527940838,-6.948697175105195],[107.356789916448236,-6.948627053985334],[107.356818221376841,-6.94852751898236],[107.357026747011673,-6.948565103110113]]]]}},
{"type":"Feature","properties":{"fid":12.0,"id":"vcXCNKhIn0f1HZImM6Eep9j858s5qoud","NAMA":"ROMLAH","DESA":"SARINAGEN","KODE PETA":"SRG-006","NIB":"3266","LUAS":"244","layer":"Romlah","path":"C:/Users/hp/Downloads/BhumiAtr-20260813T181010Z-1-001/BhumiAtr/Romlah.json|layername=Romlah","LUAS2":244,"L5":242.92605922943039,"PENGUNAAN":"SAWAH","LUAS_NEW":242.92605922943039,"LUAS TERDA":null},"geometry":{"type":"MultiPolygon","coordinates":[[[[107.356899486427437,-6.948829323594879],[107.356734461779695,-6.948985762311267],[107.356710516526107,-6.948977811771159],[107.356706710824611,-6.948955223998113],[107.356787257407333,-6.948866171495538],[107.356774611378299,-6.94882544266085],[107.35677441803972,-6.948682889391179],[107.356899486427437,-6.948829323594879]]]]}},
{"type":"Feature","properties":{"fid":13.0,"id":"j3PZA24cY8651a5Rl99f9RcuZ3gYQSAb","NAMA":"PLN","DESA":"SARINAGEN","KODE PETA":"SRG-015","NIB":null,"LUAS":"947.11","layer":"tanah_negara","path":"C:/Users/hp/Downloads/tanah_negara.json|layername=tanah_negara","LUAS2":947,"L5":944.76366018794943,"PENGUNAAN":null,"LUAS_NEW":944.76366018794943,"LUAS TERDA":null},"geometry":{"type":"MultiPolygon","coordinates":[[[[107.357122020337727,-6.947532173141397],[107.357053782593496,-6.947616844461041],[107.357082104440451,-6.947632721231021],[107.357166402685976,-6.947679975392691],[107.357126092682975,-6.947786852091953],[107.357121124654697,-6.947782590333483],[107.357117199853761,-6.947779340524769],[107.357111461021688,-6.947774495751855],[107.357005184167662,-6.947684570849062],[107.357037903917444,-6.947648451626506],[107.357033417147591,-6.947645957485577],[107.357008829645849,-6.947677312408757],[107.356661983111906,-6.947488357212563],[107.356797345878249,-6.947380277903562],[107.357122020337727,-6.947532173141397]]]]}},
{"type":"Feature","properties":{"fid":14.0,"id":"RUUb2JXRGzOa1urcwKVtwhsqmDcNzjX6","NAMA":"YAYAH ROKAYAH","DESA":"SARINAGEN","KODE PETA":"SRG-010","NIB":"3259","LUAS":"1817","layer":"yayah1","path":"C:/Users/hp/Downloads/BhumiAtr-20260813T181010Z-1-001/BhumiAtr/yayah2.json|layername=yayah2","LUAS2":2027,"L5":2022.4063954565863,"PENGUNAAN":"SAWAH","LUAS_NEW":2022.4063954565863,"LUAS TERDA":null},"geometry":{"type":"MultiPolygon","coordinates":[[[[107.357112987037496,-6.947877828723203],[107.357081128289792,-6.948488593815796],[107.357061540681229,-6.948524148087827],[107.357035928603878,-6.948519408585274],[107.357047829034002,-6.948460181591494],[107.356825252134797,-6.948436327287908],[107.356831526199869,-6.948403596873831],[107.356766047622784,-6.948386375268669],[107.356755414351483,-6.948438595616153],[107.356599889165523,-6.948367457701153],[107.356638734536034,-6.948174117752572],[107.356791509189122,-6.948192068476146],[107.356806182472397,-6.948176508997783],[107.356851375178024,-6.948128433653233],[107.356852203958724,-6.948127547627557],[107.356853201221028,-6.948126481445385],[107.356854209632857,-6.948125410959126],[107.356858572810225,-6.948121052770361],[107.356884125023598,-6.948095572614011],[107.356902355721559,-6.948077416772021],[107.35693212696026,-6.948046868449557],[107.356961813144437,-6.94801621781247],[107.356975674495843,-6.948001909243628],[107.356980045106482,-6.947997393646993],[107.356984286878259,-6.947993013321462],[107.356984900101693,-6.947992378776829],[107.356988844553044,-6.947988384588877],[107.357002874412458,-6.947975898611767],[107.357112987037496,-6.947877828723203]]]]}},
{"type":"Feature","properties":{"fid":15.0,"id":"quFDM0cEpJPiWU3VT8cwdJJGXkDDZdxS","NAMA":"YAYAH ROKAYAH","DESA":"SARINAGEN","KODE PETA":"SRG-011","NIB":"3241","LUAS":"508","layer":"Yayah2","path":"C:/Users/hp/Downloads/BhumiAtr-20260813T181010Z-1-001/BhumiAtr/Yayah.json|layername=Yayah","LUAS2":633,"L5":631.99656638680619,"PENGUNAAN":"PERKEBUNAN","LUAS_NEW":631.99656638680619,"LUAS TERDA":null},"geometry":{"type":"MultiPolygon","coordinates":[[[[107.357112987037496,-6.947877828723203],[107.356988224179076,-6.947988946586548],[107.356979529309584,-6.947997926598287],[107.356911423994703,-6.948068346229199],[107.356854234409525,-6.948125376526492],[107.356813704679354,-6.948168692788729],[107.356791509189122,-6.948192068476146],[107.356684571018619,-6.948179503449819],[107.356790332220783,-6.948051474236223],[107.356897670929186,-6.948011617698228],[107.356953916823784,-6.947893496940608],[107.356943755592624,-6.947893721088207],[107.356980692885827,-6.947762167436638],[107.356982631402047,-6.947762338665072],[107.35705790725946,-6.947774754442857],[107.35705947829868,-6.947788731761102],[107.357087924349699,-6.947789521425272],[107.357126092682975,-6.947786852091953],[107.357112987037496,-6.947877828723203]]]]}}
]
}
