{
"type": "FeatureCollection",
"name": "Bidang Neglasari",
"crs": { "type": "name", "properties": { "name": "urn:ogc:def:crs:EPSG::32748" } },
"features": [
{"type":"Feature","properties":{"fid":1.0,"NO":null,"NAMA":"IMAS MALIA","KET":"Area Tidak Terpakai","WILAYAH":"Cilalanang","LUAS_M2":1130.4933614399999,"Kode_Peta":"NGL-005","penggunaan":null,"alas hak":null,"luas alas":null,"keterangan":null,"KODE PETA":null},"geometry":{"type":"MultiPolygon","coordinates":[[[[760443.557081208215095,9231174.687163492664695,686.408899999994901],[760439.512720905826427,9231171.961028847843409,686.408899999994901],[760430.548487310064957,9231172.373771181330085,686.408899999994901],[760423.551778267254122,9231167.227842263877392,686.408899999994901],[760402.673312823986635,9231144.784530948847532,686.408899999994901],[760399.554809013614431,9231147.652988554909825,686.408899999994901],[760401.514391320990399,9231151.299767766147852,686.408899999994901],[760402.81364769116044,9231153.169332716614008,686.408899999994901],[760403.260651006479748,9231156.868521617725492,686.408899999994901],[760395.070593190612271,9231160.198364457115531,686.408899999994901],[760392.328156463219784,9231163.469107499346137,686.408899999994901],[760390.486675600404851,9231164.333417674526572,686.408899999994901],[760388.978915042127483,9231164.173581954091787,686.408899999994901],[760387.652865821612068,9231164.778233774006367,686.408899999994901],[760387.365003944607452,9231165.561010278761387,686.408899999994901],[760384.735578584019095,9231165.510282386094332,686.408899999994901],[760383.375403546495363,9231167.080645017325878,343.204400000002352],[760382.650696256547235,9231167.716241395100951,0.0],[760382.364945688517764,9231168.716368399560452,0.0],[760382.396695747505873,9231169.954620871692896,0.0],[760382.538708060979843,9231170.910500867292285,171.6021999999939],[760383.861646470846608,9231173.141008581966162,0.0],[760386.748171528801322,9231175.837466550990939,228.802949999997509],[760394.419477372081019,9231170.250019563362002,0.0],[760410.792875699931756,9231192.015747245401144,457.605899999995017],[760414.983555444749072,9231190.447917470708489,686.408899999994901],[760437.576592587400228,9231180.237024905160069,686.408899999994901],[760443.557081208215095,9231174.687163492664695,686.408899999994901]]]]}},
{"type":"Feature","properties":{"fid":3.0,"NO":null,"NAMA":"CUCU SOLIHAT","KET":"Area Tidak Terpakai","WILAYAH":"Cilalanang","LUAS_M2":46.444310110700002,"Kode_Peta":"NGL-002","penggunaan":null,"alas hak":null,"luas alas":null,"keterangan":null,"KODE PETA":null},"geometry":{"type":"MultiPolygon","coordinates":[[[[760378.553381112404168,9231177.677330503240228,0.0],[760377.106076833792031,9231177.253431312739849,0.0],[760375.201073023490608,9231177.338098147884011,0.0],[760372.830401618033648,9231178.057766251266003,0.0],[760371.835566291585565,9231178.60810068435967,0.0],[760371.186034532263875,9231179.117396216839552,0.0],[760372.616118321195245,9231186.130642158910632,451.975300000005518],[760380.13343960326165,9231180.655350858345628,457.605899999995017],[760378.332958488725126,9231178.282432844862342,686.408899999994901],[760378.553381112404168,9231177.677330503240228,0.0]]]]}},
{"type":"Feature","properties":{"fid":4.0,"NO":null,"NAMA":"H.ADE ALIAS A MUNIR SYARONI","KET":"Area Tidak Terpakai","WILAYAH":"Cilalanang","LUAS_M2":797.76294790400004,"Kode_Peta":"NGL-006","penggunaan":null,"alas hak":null,"luas alas":null,"keterangan":null,"KODE PETA":null},"geometry":{"type":"MultiPolygon","coordinates":[[[[760441.370373181416653,9231213.260572094470263,681.518899999995483],[760442.580880766967312,9231203.422731811180711,686.408899999994901],[760448.154044543509372,9231185.242926260456443,686.408899999994901],[760443.432203048258089,9231180.354549810290337,686.408899999994901],[760437.576592588215135,9231180.237024903297424,686.408899999994901],[760414.983555443235673,9231190.447917466983199,686.408899999994901],[760414.8062161388807,9231193.470630384981632,686.408899999994901],[760414.761592323426157,9231197.291500242426991,457.605899999995017],[760429.479846146539785,9231216.856986792758107,454.812000000005355],[760432.379408434499055,9231216.472310874611139,681.518899999995483],[760440.063115890487097,9231214.562401387840509,681.518899999995483],[760441.370373181416653,9231213.260572094470263,681.518899999995483]]]]}},
{"type":"Feature","properties":{"fid":5.0,"NO":null,"NAMA":"SITI SARAH SOPIAH","KET":"Area Tidak Terpakai","WILAYAH":"Cilalanang","LUAS_M2":46.099896139199998,"Kode_Peta":"NGL-004","penggunaan":null,"alas hak":null,"luas alas":null,"keterangan":null,"KODE PETA":null},"geometry":{"type":"MultiPolygon","coordinates":[[[[760386.748171528801322,9231175.837466550990939,0.0],[760383.861646470613778,9231173.141008581966162,0.0],[760383.402436891570687,9231173.141487456858158,0.0],[760380.85681766923517,9231174.420796474441886,0.0],[760379.904315762221813,9231175.029339360073209,0.0],[760379.639731901697814,9231175.928924491629004,0.0],[760379.137022561393678,9231177.225385416299105,0.0],[760378.553381112404168,9231177.677330503240228,0.0],[760378.332958488725126,9231178.282432844862342,686.408899999994901],[760380.13343960326165,9231180.655350858345628,457.605899999995017],[760386.748171528801322,9231175.837466550990939,0.0]]]]}},
{"type":"Feature","properties":{"fid":6.0,"NO":null,"NAMA":"SITI SARAH SOPIAH","KET":"Area Tidak Terpakai","WILAYAH":"Cilalanang","LUAS_M2":46.099896139199998,"Kode_Peta":"NGL-004","penggunaan":null,"alas hak":null,"luas alas":null,"keterangan":null,"KODE PETA":null},"geometry":{"type":"MultiPolygon","coordinates":[[[[760414.806216141209006,9231193.470630388706923,686.408899999994901],[760414.983555445447564,9231190.447917470708489,686.408899999994901],[760410.792875699698925,9231192.015747245401144,457.605899999995017],[760414.761592324823141,9231197.291500242426991,457.605899999995017],[760414.806216141209006,9231193.470630388706923,686.408899999994901]]]]}},
{"type":"Feature","properties":{"fid":7.0,"NO":null,"NAMA":"H. AISYAH (ALM)/ AGUS MF","KET":"Area Tidak Terpakai","WILAYAH":"Cilalanang","LUAS_M2":35.022649260500003,"Kode_Peta":"NGL-001","penggunaan":null,"alas hak":null,"luas alas":null,"keterangan":null,"KODE PETA":null},"geometry":{"type":"MultiPolygon","coordinates":[[[[760372.616118321195245,9231186.130642157047987,451.975300000005518],[760371.186034532496706,9231179.117396214976907,681.518899999995483],[760367.380411084974185,9231181.449781611561775,681.518899999995483],[760367.022426795912907,9231184.643357079476118,676.628899999996065],[760368.728000798029825,9231188.962578600272536,338.314499999993131],[760372.616118321195245,9231186.130642157047987,451.975300000005518]]]]}},
{"type":"Feature","properties":{"fid":8.0,"NO":null,"NAMA":"H CECEP ANWAR","KET":"Area Tidak Terpakai","WILAYAH":"Cilalanang","LUAS_M2":740.50943079099989,"Kode_Peta":"NGL-007","penggunaan":null,"alas hak":null,"luas alas":null,"keterangan":null,"KODE PETA":null},"geometry":{"type":"MultiPolygon","coordinates":[[[[760464.286946078645997,9231237.838306335732341,679.833400000003166],[760466.579597605508752,9231234.699282571673393,676.628899999996065],[760468.362358024925925,9231232.578938143327832,676.628899999996065],[760469.079177968786098,9231232.771062361076474,676.628899999996065],[760470.402354733319953,9231231.220805782824755,676.628899999996065],[760466.747951603960246,9231224.483538100495934,676.628899999996065],[760455.194512685178779,9231209.758643733337522,676.628899999996065],[760447.544417775934562,9231214.084037188440561,676.628899999996065],[760444.704367620288394,9231214.249968200922012,676.628899999996065],[760441.370373181416653,9231213.260572094470263,681.518899999995483],[760440.063115890487097,9231214.562401387840509,681.518899999995483],[760432.379408434499055,9231216.472310874611139,681.518899999995483],[760429.479846146539785,9231216.856986792758107,454.812000000005355],[760441.299424184020609,9231232.569162838160992,0.0],[760447.011195926228538,9231240.619433870539069,453.222299999993993],[760447.23304573376663,9231240.44073592312634,679.833400000003166],[760449.556129251956008,9231240.919345416128635,679.833400000003166],[760449.460951809887774,9231240.414825908839703,679.833400000003166],[760455.729841932887211,9231240.822420734912157,679.833400000003166],[760460.64089746621903,9231239.773249592632055,679.833400000003166],[760460.632825536071323,9231239.194406317546964,679.833400000003166],[760462.593666934408247,9231238.766033472493291,679.833400000003166],[760464.286946078645997,9231237.838306335732341,679.833400000003166]]]]}},
{"type":"Feature","properties":{"fid":11.0,"NO":null,"NAMA":"MISRIYAH","KET":"Area Tidak Terpakai","WILAYAH":"Cilalanang","LUAS_M2":1113.0910775,"Kode_Peta":"NGL-008","penggunaan":null,"alas hak":null,"luas alas":null,"keterangan":null,"KODE PETA":null},"geometry":{"type":"MultiPolygon","coordinates":[[[[760484.332122147781774,9231279.248977640643716,683.037899999995716],[760485.648381441249512,9231277.160540942102671,683.037899999995716],[760485.639938676031306,9231274.515382224693894,683.037899999995716],[760486.671684825443663,9231272.496948376297951,683.037899999995716],[760487.948194903787225,9231270.253259930759668,683.037899999995716],[760488.227022330858745,9231267.971736682578921,683.037899999995716],[760487.693221461027861,9231260.251756452023983,683.037899999995716],[760489.020389202982187,9231259.059602124616504,683.037899999995716],[760488.876569475163706,9231257.546461386606097,683.037899999995716],[760490.274066732381471,9231256.583919897675514,683.037899999995716],[760489.791615001508035,9231254.769405670464039,683.037899999995716],[760491.571924603078514,9231245.66747927851975,683.037899999995716],[760492.151892387191765,9231242.543146945536137,683.037899999995716],[760493.205392564414069,9231240.985923143103719,683.037899999995716],[760492.566689037019387,9231239.536782851442695,683.037899999995716],[760494.015305056818761,9231237.507371373474598,683.037899999995716],[760480.528934404137544,9231239.373831711709499,683.037899999995716],[760478.0459582809126,9231241.70251403003931,683.037899999995716],[760477.628668701509014,9231242.651269821450114,683.037899999995716],[760474.855997946462594,9231242.553517173975706,683.037899999995716],[760472.692500110482797,9231243.470033187419176,683.037899999995716],[760464.286946078645997,9231237.838306335732341,679.833400000003166],[760462.593666934408247,9231238.766033472493291,679.833400000003166],[760460.632825536071323,9231239.194406317546964,679.833400000003166],[760460.64089746621903,9231239.773249592632055,679.833400000003166],[760455.729841932887211,9231240.822420734912157,679.833400000003166],[760449.460951809887774,9231240.414825908839703,679.833400000003166],[760449.556129251956008,9231240.919345416128635,679.833400000003166],[760447.23304573376663,9231240.44073592312634,679.833400000003166],[760447.011195926228538,9231240.619433870539069,453.222299999993993],[760472.903912729700096,9231277.113081971183419,0.0],[760473.19116975273937,9231277.835424533113837,455.358600000006845],[760478.442618083674461,9231279.805781161412597,683.037899999995716],[760484.332122147781774,9231279.248977640643716,683.037899999995716]]]]}},
{"type":"Feature","properties":{"fid":16.0,"NO":null,"NAMA":"IDRIS","KET":"Area Tidak Terpakai","WILAYAH":"Cilalanang","LUAS_M2":160.734971269,"Kode_Peta":"NGL-009","penggunaan":null,"alas hak":null,"luas alas":null,"keterangan":null,"KODE PETA":null},"geometry":{"type":"MultiPolygon","coordinates":[[[[760484.332122147781774,9231279.248977640643716,683.037899999995716],[760478.442618083674461,9231279.805781161412597,683.037899999995716],[760473.19116975273937,9231277.835424533113837,455.358600000006845],[760482.432667747605592,9231301.074290158227086,0.0],[760482.386144348420203,9231308.394447531551123,227.679300000003423],[760482.828388897585683,9231308.414156764745712,341.519000000000233],[760485.907560999621637,9231287.967356566339731,683.037899999995716],[760485.985441201133654,9231285.044434258714318,683.037899999995716],[760484.332122147781774,9231279.248977640643716,683.037899999995716]]]]}},
{"type":"Feature","properties":{"fid":17.0,"NO":null,"NAMA":"H ENI","KET":"Area Tidak Terpakai","WILAYAH":"Cilalanang","LUAS_M2":332.04702778500001,"Kode_Peta":"NGL-011","penggunaan":null,"alas hak":null,"luas alas":null,"keterangan":null,"KODE PETA":null},"geometry":{"type":"MultiPolygon","coordinates":[[[[760482.828388897585683,9231308.414156764745712,341.519000000000233],[760482.386144348420203,9231308.394447531551123,227.679300000003423],[760482.359154480160214,9231312.641129426658154,0.0],[760482.368381056003273,9231354.108355870470405,0.0],[760485.52077040518634,9231346.339463975280523,0.0],[760496.933962485287338,9231316.080309858545661,0.0],[760488.88157796068117,9231312.559768468141556,0.0],[760482.828388897585683,9231308.414156764745712,341.519000000000233]]]]}},
{"type":"Feature","properties":{"fid":23.0,"NO":null,"NAMA":"IMAS MALIA","KET":"Area Terpakai","WILAYAH":"Cilalanang","LUAS_M2":163.14875059,"Kode_Peta":"NGL-005","penggunaan":"PERTANIAN","alas hak":"SHM","luas alas":"1345","keterangan":"TERKENA SEBAGIAN","KODE PETA":"NGL-005"},"geometry":{"type":"MultiPolygon","coordinates":[[[[760410.792875699698925,9231192.015747245401144,457.605899999995017],[760394.419477372430265,9231170.250019561499357,0.0],[760386.748171528801322,9231175.837466549128294,457.605899999995017],[760393.448687034659088,9231182.977116415277123,686.408899999994901],[760396.997973056510091,9231185.267993174493313,686.408899999994901],[760406.699582977220416,9231188.911737198010087,686.408899999994901],[760408.178481778129935,9231192.993852203711867,686.408899999994901],[760408.220864025875926,9231192.977996030822396,686.408899999994901],[760410.792875699698925,9231192.015747245401144,457.605899999995017]]]]}},
{"type":"Feature","properties":{"fid":25.0,"NO":null,"NAMA":"CUCU SOLIHAT","KET":"Area Terpakai","WILAYAH":"Cilalanang","LUAS_M2":352.27544469100002,"Kode_Peta":"NGL-002","penggunaan":"PERTANIAN","alas hak":"SHM","luas alas":"828","keterangan":"TERKENA SEBAGIAN","KODE PETA":"NGL-002"},"geometry":{"type":"MultiPolygon","coordinates":[[[[760402.026723994873464,9231199.820064764469862,228.802999999999884],[760397.549485081806779,9231195.554701633751392,686.408899999994901],[760391.024039784446359,9231190.225483268499374,686.408899999994901],[760385.780131314881146,9231184.244148572906852,686.408899999994901],[760380.532013352960348,9231181.180645348504186,686.408899999994901],[760380.13343960326165,9231180.655350854620337,457.605899999995017],[760372.616118321195245,9231186.130642158910632,451.975300000005518],[760373.15258549246937,9231188.761520314961672,676.628899999996065],[760381.060814226977527,9231196.968750158324838,676.628899999996065],[760390.026644946075976,9231205.92572414688766,676.628899999996065],[760392.089926268905401,9231208.396175982430577,225.543000000005122],[760402.026723994873464,9231199.820064764469862,228.802999999999884]]]]}},
{"type":"Feature","properties":{"fid":26.0,"NO":null,"NAMA":"H.ADE ALIAS A MUNIR SYARONI","KET":"Area Terpakai","WILAYAH":"Cilalanang","LUAS_M2":50.531257699400001,"Kode_Peta":"NGL-006","penggunaan":"PERTANIAN","alas hak":"SPPT","luas alas":null,"keterangan":"TERKENA SEBAGIAN","KODE PETA":"NGL-006"},"geometry":{"type":"MultiPolygon","coordinates":[[[[760429.479846146539785,9231216.856986792758107,454.812000000005355],[760414.761592323426157,9231197.291500242426991,457.605899999995017],[760414.739792915992439,9231199.158053064718843,686.408899999994901],[760418.171351416152902,9231204.652716789394617,686.408899999994901],[760425.619306542910635,9231217.369152586907148,683.14890000000014],[760429.479846146539785,9231216.856986792758107,454.812000000005355]]]]}},
{"type":"Feature","properties":{"fid":27.0,"NO":null,"NAMA":"SITI SARAH SOPIAH","KET":"Area Terpakai","WILAYAH":"Cilalanang","LUAS_M2":493.95121141499999,"Kode_Peta":"NGL-004","penggunaan":"PERTANIAN","alas hak":"SPPT","luas alas":"300","keterangan":"TERKENA SEBAGIAN","KODE PETA":"NGL-004"},"geometry":{"type":"MultiPolygon","coordinates":[[[[760414.761592324823141,9231197.291500242426991,457.605899999995017],[760410.792875699698925,9231192.015747245401144,457.605899999995017],[760408.220864025875926,9231192.977996030822396,686.408899999994901],[760406.699582977220416,9231188.911737198010087,686.408899999994901],[760396.997973056510091,9231185.267993174493313,686.408899999994901],[760393.448687034659088,9231182.977116415277123,686.408899999994901],[760386.748171528801322,9231175.837466549128294,457.605899999995017],[760380.13343960326165,9231180.655350854620337,457.605899999995017],[760380.532013352960348,9231181.180645348504186,686.408899999994901],[760385.780131314881146,9231184.244148572906852,686.408899999994901],[760391.024039784446359,9231190.225483268499374,686.408899999994901],[760397.549485081806779,9231195.554701633751392,686.408899999994901],[760402.026723994873464,9231199.820064764469862,228.802999999999884],[760413.875350930728018,9231211.481972834095359,686.408899999994901],[760415.265418977476656,9231214.278151202946901,686.408899999994901],[760420.985763948410749,9231220.135485837236047,686.408899999994901],[760425.378400777466595,9231224.682082623243332,681.518899999995483],[760425.619306546635926,9231217.369152588769794,683.14890000000014],[760418.171351417899132,9231204.652716791257262,686.408899999994901],[760414.739792917855084,9231199.158053062856197,686.408899999994901],[760414.761592324823141,9231197.291500242426991,457.605899999995017]]]]}},
{"type":"Feature","properties":{"fid":28.0,"NO":null,"NAMA":"AGUS MIFTAH FARID","KET":"Area Terpakai","WILAYAH":"Cilalanang","LUAS_M2":404.83056619899997,"Kode_Peta":"NGL-003","penggunaan":"PERTANIAN","alas hak":"SHM","luas alas":"828","keterangan":null,"KODE PETA":"NGL-003"},"geometry":{"type":"MultiPolygon","coordinates":[[[[760425.37840077385772,9231224.682082625105977,681.518899999995483],[760420.98576394689735,9231220.135485835373402,686.408899999994901],[760415.265418973052874,9231214.278151201084256,686.408899999994901],[760413.875350929098204,9231211.481972832232714,686.408899999994901],[760402.026723990915343,9231199.820064764469862,228.802999999999884],[760392.089926269371063,9231208.396175980567932,225.543000000005122],[760397.722554862732068,9231214.651180917397141,676.628899999996065],[760409.274577934411354,9231224.077852917835116,676.628899999996065],[760415.945503961760551,9231227.253577500581741,676.628899999996065],[760424.68551491049584,9231229.652510380372405,676.628899999996065],[760424.715057522407733,9231229.584639789536595,676.628899999996065],[760425.37840077385772,9231224.682082625105977,681.518899999995483]]]]}},
{"type":"Feature","properties":{"fid":29.0,"NO":null,"NAMA":"H. AISYAH (ALM)/ AGUS MF","KET":"Area Terpakai","WILAYAH":"Cilalanang","LUAS_M2":394.89832065399997,"Kode_Peta":"NGL-001","penggunaan":"PERTANIAN","alas hak":"SPPT","luas alas":"430","keterangan":"TERKENA SEBAGIAN","KODE PETA":"NGL-001"},"geometry":{"type":"MultiPolygon","coordinates":[[[[760424.68551491049584,9231229.652510380372405,676.628899999996065],[760415.945503961760551,9231227.253577500581741,676.628899999996065],[760409.274577934411354,9231224.077852917835116,676.628899999996065],[760397.722554862732068,9231214.651180917397141,676.628899999996065],[760392.089926269371063,9231208.396175980567932,225.543000000005122],[760390.0266449439805,9231205.92572414688766,676.628899999996065],[760381.060814227326773,9231196.968750158324838,676.628899999996065],[760373.152585491072387,9231188.761520313099027,676.628899999996065],[760372.616118321195245,9231186.130642157047987,451.975300000005518],[760368.728000798029825,9231188.962578600272536,338.314499999993131],[760370.973506291164085,9231194.649130834266543,676.628899999996065],[760377.807182534248568,9231203.309086238965392,676.628899999996065],[760388.799730243277736,9231211.648866703733802,676.628899999996065],[760405.848840291029774,9231227.364245833829045,676.628899999996065],[760420.596130069927312,9231239.047377625480294,676.628899999996065],[760424.68551491049584,9231229.652510380372405,676.628899999996065]]]]}},
{"type":"Feature","properties":{"fid":30.0,"NO":null,"NAMA":"H CECEP ANWAR","KET":"Area Terpakai","WILAYAH":"Cilalanang","LUAS_M2":497.60792960499998,"Kode_Peta":"NGL-007","penggunaan":"PERTANIAN","alas hak":"SPPT","luas alas":"1982","keterangan":"TERKENA SEBAGIAN","KODE PETA":"NGL-007"},"geometry":{"type":"MultiPolygon","coordinates":[[[[760447.011195926228538,9231240.619433870539069,453.222299999993993],[760441.299424184020609,9231232.569162838160992,0.0],[760429.479846146539785,9231216.856986792758107,454.812000000005355],[760425.619306542910635,9231217.369152586907148,683.14890000000014],[760425.37840077385772,9231224.682082625105977,681.518899999995483],[760424.715057522407733,9231229.584639789536595,676.628899999996065],[760424.68551491049584,9231229.652510380372405,676.628899999996065],[760420.596130069927312,9231239.047377625480294,676.628899999996065],[760434.085365028935485,9231253.173884788528085,679.833400000003166],[760438.86318997235503,9231248.606776682659984,679.833400000003166],[760441.457472248584963,9231247.705679589882493,679.833400000003166],[760441.625783316325396,9231245.814944012090564,679.833400000003166],[760443.544195528374985,9231243.412070346996188,679.833400000003166],[760447.011195926228538,9231240.619433870539069,453.222299999993993]]]]}},
{"type":"Feature","properties":{"fid":34.0,"NO":null,"NAMA":"MISRIYAH","KET":"Area Terpakai","WILAYAH":"Cilalanang","LUAS_M2":524.81808742299995,"Kode_Peta":"NGL-008","penggunaan":"PERTANIAN","alas hak":"SHM","luas alas":"1700","keterangan":"TERKENA SEBAGIAN","KODE PETA":"NGL-008"},"geometry":{"type":"MultiPolygon","coordinates":[[[[760447.011195926228538,9231240.619433870539069,453.222299999993993],[760443.544195528374985,9231243.412070346996188,679.833400000003166],[760441.625783316325396,9231245.814944012090564,679.833400000003166],[760441.457472248584963,9231247.705679589882493,679.833400000003166],[760438.86318997235503,9231248.606776682659984,679.833400000003166],[760434.085365028935485,9231253.173884788528085,679.833400000003166],[760448.165556485415436,9231265.257851354777813,683.037899999995716],[760456.935025434358977,9231274.178124880418181,683.037899999995716],[760463.181664195144549,9231275.753368470817804,683.037899999995716],[760468.845916759688407,9231276.205074679106474,683.037899999995716],[760473.19116975273937,9231277.835424533113837,455.358600000006845],[760472.903912729700096,9231277.113081971183419,0.0],[760447.011195926228538,9231240.619433870539069,453.222299999993993]]]]}},
{"type":"Feature","properties":{"fid":39.0,"NO":null,"NAMA":"IDRIS","KET":"Area Terpakai","WILAYAH":"Cilalanang","LUAS_M2":581.07728877399995,"Kode_Peta":"NGL-009","penggunaan":"PERTANIAN","alas hak":"SHM","luas alas":"711","keterangan":"TERKENA SEBAGIAN","KODE PETA":"NGL-009"},"geometry":{"type":"MultiPolygon","coordinates":[[[[760482.386144348420203,9231308.394447531551123,227.679300000003423],[760482.432667747605592,9231301.074290158227086,0.0],[760473.19116975273937,9231277.835424533113837,455.358600000006845],[760468.845916759688407,9231276.205074679106474,683.037899999995716],[760463.181664195144549,9231275.753368470817804,683.037899999995716],[760456.935025434358977,9231274.178124880418181,683.037899999995716],[760459.215055155917071,9231282.190804904326797,683.037899999995716],[760455.92056596709881,9231282.109889943152666,683.037899999995716],[760459.782236644299701,9231297.137397145852447,683.037899999995716],[760459.855829441803508,9231297.423780012875795,683.037899999995716],[760461.057185312965885,9231301.541949156671762,341.519000000000233],[760468.328666847199202,9231304.149809492751956,683.037899999995716],[760473.024973156047054,9231306.789852533489466,683.037899999995716],[760473.893789010122418,9231306.587554780766368,683.037899999995716],[760475.303280702675693,9231309.100409517064691,227.679300000003423],[760477.945654170238413,9231308.196551041677594,341.519000000000233],[760480.143056599306874,9231308.294481268152595,341.519000000000233],[760482.386144348420203,9231308.394447531551123,227.679300000003423]]]]}},
{"type":"Feature","properties":{"fid":40.0,"NO":null,"NAMA":"H TAJUL","KET":"Area Terpakai","WILAYAH":"Cilalanang","LUAS_M2":660.30991042999995,"Kode_Peta":"NGL-010","penggunaan":"PERTANIAN","alas hak":"SPPT","luas alas":"660","keterangan":"TERKENA SELURUHNYA","KODE PETA":"NGL-010"},"geometry":{"type":"MultiPolygon","coordinates":[[[[760475.303280702675693,9231309.100409517064691,227.679300000003423],[760473.893789010122418,9231306.587554780766368,683.037899999995716],[760473.024973156047054,9231306.789852533489466,683.037899999995716],[760468.328666847199202,9231304.149809492751956,683.037899999995716],[760461.057185312965885,9231301.541949156671762,341.519000000000233],[760460.776904602651484,9231323.600578082725406,0.0],[760461.716101081459783,9231339.461352627724409,0.0],[760458.136459965375252,9231347.56081110984087,0.0],[760460.901111811166629,9231361.130569392815232,0.0],[760472.564214107114822,9231363.196770627051592,0.0],[760468.367710849503055,9231342.213662074878812,0.0],[760470.595336296828464,9231340.816046426072717,0.0],[760470.16374743974302,9231330.719170790165663,0.0],[760473.110633614240214,9231321.276942048221827,0.0],[760476.303065275191329,9231314.651561301201582,0.0],[760475.303280702675693,9231309.100409517064691,227.679300000003423]]]]}},
{"type":"Feature","properties":{"fid":41.0,"NO":null,"NAMA":"H ENI","KET":"Area Terpakai","WILAYAH":"Cilalanang","LUAS_M2":556.56249982899999,"Kode_Peta":"NGL-011","penggunaan":"PERTANIAN, KANDANG AYAM","alas hak":"SURAT PERJANJIAN","luas alas":"800","keterangan":null,"KODE PETA":"NGL-011"},"geometry":{"type":"MultiPolygon","coordinates":[[[[760482.368381056003273,9231354.108355870470405,0.0],[760482.359154480160214,9231312.641129426658154,0.0],[760482.386144348420203,9231308.394447531551123,227.679300000003423],[760480.143056599306874,9231308.294481268152595,341.519000000000233],[760477.945654170238413,9231308.196551041677594,341.519000000000233],[760475.303280702675693,9231309.100409517064691,227.679300000003423],[760476.303065275191329,9231314.651561301201582,0.0],[760473.110633614240214,9231321.276942048221827,0.0],[760470.16374743974302,9231330.719170790165663,0.0],[760470.595336296828464,9231340.816046426072717,0.0],[760468.367710849503055,9231342.213662074878812,0.0],[760472.564214107114822,9231363.196770627051592,0.0],[760479.822150712134317,9231360.383401900529861,0.0],[760482.368381056003273,9231354.108355870470405,0.0]]]]}}
]
}
