{
"type": "FeatureCollection",
"name": "Permukiman",
"crs": { "type": "name", "properties": { "name": "urn:ogc:def:crs:OGC:1.3:CRS84" } },
"features": [
{"type":"Feature","properties":{"id":11},"geometry":{"type":"MultiPolygon","coordinates":[[[[107.356865931079369,-6.947599465780243],[107.357008829645835,-6.947677312408755],[107.357008829645835,-6.947677312408755],[107.357033417147576,-6.947645957485578],[107.357037908905895,-6.947648457106714],[107.357005184167662,-6.947684570849062],[107.356993418604404,-6.947697495826986],[107.356925613377697,-6.94769684523343],[107.356919717897455,-6.947696672828992],[107.356863065561868,-6.947685042038741],[107.356841485990444,-6.947672384108826],[107.356831677094078,-6.947645120872765],[107.356865931079369,-6.947599465780243]]]]}},
{"type":"Feature","properties":{"id":12},"geometry":{"type":"MultiPolygon","coordinates":[[[[107.357057907259446,-6.947774754442857],[107.356980692885799,-6.947762167436638],[107.356911915293082,-6.947756092336817],[107.356925613377697,-6.94769684523343],[107.356993418604404,-6.947697495826986],[107.357057907259446,-6.947774754442857]]]]}}
]
}
