{
"type": "FeatureCollection",
"name": "Tanah Negara Neglasari",
"crs": { "type": "name", "properties": { "name": "urn:ogc:def:crs:OGC:1.3:CRS84" } },
"features": [
{"type":"Feature","properties":{"id":null,"NAMA":"TN","DESA":"SARINAGEN","KODEPETA":"NGL-012","LUAS":341.62},"geometry":{"type":"MultiPolygon","coordinates":[[[[107.357441154281275,-6.947972088257635],[107.357417856671503,-6.947915547568713],[107.357379208410407,-6.947900725985843],[107.357352085646355,-6.947890442730129],[107.357332570136904,-6.947894104764038],[107.357323882479633,-6.947895596087231],[107.357290058494328,-6.947901717666718],[107.357272040517017,-6.94790498508302],[107.357246741567707,-6.947909294348261],[107.357267308195361,-6.947868162713335],[107.357271809358551,-6.947850521853175],[107.35728321406134,-6.947804568606807],[107.357286519229106,-6.947789266736438],[107.357289667389708,-6.947774770143357],[107.357295756062712,-6.947752575981731],[107.357369174230655,-6.947793576831236],[107.357440545030926,-6.947833687823207],[107.357440891436951,-6.947903194546694],[107.357441154281275,-6.947972088257635]]]]}}
]
}
