{"type": "FeatureCollection", "features": [{"type": "Feature", "properties": {"fid": 1, "KET": "Area Terpakai", "Luas Area Proyek": 11755.931928408929}, "geometry": {"type": "MultiPolygon", "coordinates": [[[[107.35697737000004, -6.948435282999981, 0.0], [107.35698161000005, -6.947576387999959, 0.0], [107.35744051900008, -6.947833633999949, 0.0], [107.35744296300004, -6.948346942999933, 0.0], [107.35744414900006, -6.948451483999975, 0.0], [107.35735904000006, -6.94866848099997, 0.0], [107.35707518100008, -6.949072503999957, 0.0], [107.35665395400008, -6.949637871999926, 0.0], [107.35623600100007, -6.949336853999966, 0.0], [107.35674283400004, -6.948728743999936, 0.0], [107.35697737000004, -6.948435282999981, 0.0]]]]}}, {"type": "Feature", "properties": {"fid": 2, "KET": "Area Terpakai", "Luas Area Proyek": 12368.469755222206}, "geometry": {"type": "MultiPolygon", "coordinates": [[[[107.3371156166034, -6.919569264201523, 0.0], [107.3370104631311, -6.919188955882235, 0.0], [107.3374445296944, -6.919085247839441, 0.0], [107.3374775110228, -6.919217763574568, 0.0], [107.3375657421303, -6.919563158264748, 0.0], [107.3375815291378, -6.919589504080892, 0.0], [107.3376025358673, -6.919632865050855, 0.0], [107.3376232146858, -6.919666001330745, 0.0], [107.337684533276, -6.919741256429258, 0.0], [107.3377730079013, -6.919853470577627, 0.0], [107.3378147224931, -6.919903593922396, 0.0], [107.3378567554392, -6.919900617163364, 0.0], [107.3379618588228, -6.920034234822273, 0.0], [107.33800454729949, -6.920067655735819, 0.0], [107.3380443227485, -6.920097990220998, 0.0], [107.33806757784583, -6.920124285449135, 0.0], [107.33811250562886, -6.920178856830149, 0.0], [107.33816995405556, -6.920242505596083, 0.0], [107.3382089393472, -6.920290140374709, 0.0], [107.3382550435859, -6.920372983847476, 0.0], [107.338300930302, -6.920476717143423, 0.0], [107.338319531968, -6.920573867710025, 0.0], [107.338310987118, -6.920687261748884, 0.0], [107.3382838587209, -6.920868556798695, 0.0], [107.3382536460988, -6.921013529388833, 0.0], [107.3381931460085, -6.921045083958757, 0.0], [107.3381234865016, -6.921061515478494, 0.0], [107.3378454715895, -6.92108755541533, 0.0], [107.3377092954344, -6.921102070698291, 0.0], [107.3378137253718, -6.920654153573209, 0.0], [107.3378107956397, -6.920597251515692, 0.0], [107.3377397260192, -6.920504553281308, 0.0], [107.3376681912802, -6.920423989641492, 0.0], [107.3376127364369, -6.920310268855512, 0.0], [107.3375771591526, -6.920262521887119, 0.0], [107.3375111198183, -6.920181156709961, 0.0], [107.3375090575011, -6.920153838683345, 0.0], [107.337395930714, -6.920020410003867, 0.0], [107.3373052236704, -6.91990236504679, 0.0], [107.3372564642886, -6.919864999939881, 0.0], [107.3372194120317, -6.919822103854215, 0.0], [107.3371707278887, -6.919748410144059, 0.0], [107.3371156166034, -6.919569264201523, 0.0]]]]}}]}