{"type": "FeatureCollection", "features": [{"type": "Feature", "properties": {"fid": 1, "id": null, "nama": "misriah", "desa": null, "kode peta": null, "nib": null, "luas_1": 226.9}, "geometry": {"type": "MultiPolygon", "coordinates": [[[[107.35700015037072, -6.947639150136355], [107.35693011695999, -6.947760086539034], [107.356890706527, -6.947750129456108], [107.35684073386797, -6.947717751319749], [107.35682931976235, -6.947705316813414], [107.35682507846586, -6.947688236306196], [107.3568243425415, -6.94768406267174], [107.35689197238271, -6.947577097934497], [107.35697721483743, -6.947626293395267], [107.35700015037072, -6.947639150136355]]]]}}, {"type": "Feature", "properties": {"fid": 2, "id": null, "nama": "arif", "desa": null, "kode peta": null, "nib": null, "luas_1": 90.18}, "geometry": {"type": "MultiPolygon", "coordinates": [[[[107.35697565575262, -6.94768178560211], [107.35701479776094, -6.947704577829413], [107.35698939851399, -6.947749900479136], [107.35697532452423, -6.947776204483841], [107.3569643034782, -6.947837473203831], [107.35690970728031, -6.947825506151296], [107.35692882140495, -6.947762195632113], [107.35697565575262, -6.94768178560211]]]]}}]}