{
"type": "FeatureCollection",
"name": "bangunan_sekunder_ngl",
"crs": { "type": "name", "properties": { "name": "urn:ogc:def:crs:OGC:1.3:CRS84" } },
"features": [
{"type":"Feature","properties":{"fid":1,"id":null,"NAMA":"KD AYAM","PEMANFAATA":null,"LUAS1":132.71,"LUAS":244.98386391194072},"geometry":{"type":"MultiPolygon","coordinates":[[[[107.357360915562836,-6.948153757831895],[107.35739256119156,-6.948138636727607],[107.357386631494748,-6.948111956970725],[107.357392415249592,-6.948109353801724],[107.357386193992369,-6.948088789664749],[107.357439590439128,-6.948076295605541],[107.357448380746632,-6.948135784558215],[107.357434554198505,-6.948140036744502],[107.357456034480705,-6.948185303416871],[107.357474262365869,-6.948224150305691],[107.357525038347745,-6.948332021854097],[107.35749485870295,-6.948350514556944],[107.357461541642834,-6.94836950557011],[107.357442469215172,-6.948330823784635],[107.357360915562836,-6.948153757831895]]]]}}
]
}
