{"type": "FeatureCollection", "features": [{"type": "Feature", "properties": {"id": 2, "Pemanfaata": "kios cindermata", "luas_dmpk": 40.47}, "geometry": {"type": "MultiPolygon", "coordinates": [[[[107.35704541078157, -6.947633203253781], [107.35711737350663, -6.947664777803746], [107.35709974496513, -6.947700776445687], [107.35702876371518, -6.947673024847402], [107.3570345014178, -6.94764803706229], [107.35704541078157, -6.947633203253781]]]]}}, {"type": "Feature", "properties": {"id": null, "Pemanfaata": "saung matrial/ saung pasir", "luas_dmpk": 14.63}, "geometry": {"type": "MultiPolygon", "coordinates": [[[[107.35698318973267, -6.947626551124259], [107.3570014825347, -6.94759459548406], [107.35703115738276, -6.947609896125894], [107.35700970661739, -6.947641650560141], [107.35698318973267, -6.947626551124259]]]]}}, {"type": "Feature", "properties": {"id": null, "Pemanfaata": "kios cinderamata2", "luas_dmpk": 20.35}, "geometry": {"type": "MultiPolygon", "coordinates": [[[[107.35704687288717, -6.947900370878394], [107.35701013622543, -6.947956568156632], [107.35699315439396, -6.947944808005036], [107.35698947222485, -6.947942229722465], [107.3570234729059, -6.947888820263101], [107.35704687288717, -6.947900370878394]]]]}}, {"type": "Feature", "properties": {"id": null, "Pemanfaata": "saung matrial/saung aduk", "luas_dmpk": 9.15}, "geometry": {"type": "MultiPolygon", "coordinates": [[[[107.35698099760415, -6.947851574405798], [107.35698078955701, -6.947833716682191], [107.35699220038555, -6.947834298234821], [107.35700372693782, -6.94783551738939], [107.357021331979, -6.947837019068221], [107.3570199084439, -6.947856464681505], [107.35698099760415, -6.947851574405798]]]]}}, {"type": "Feature", "properties": {"id": null, "Pemanfaata": "saung gazebo", "luas_dmpk": 9.2}, "geometry": {"type": "MultiPolygon", "coordinates": [[[[107.35709794064489, -6.948116578791219], [107.35706379932802, -6.9481178241777], [107.3570647458001, -6.948094838426979], [107.35709611458934, -6.948093621534294], [107.35709794064489, -6.948116578791219]]]]}}, {"type": "Feature", "properties": {"id": null, "Pemanfaata": "KANDANG DOMBA", "luas_dmpk": 14.41}, "geometry": {"type": "MultiPolygon", "coordinates": [[[[107.35683399287882, -6.948614682296315], [107.35683637560564, -6.948571008858479], [107.35686278558465, -6.948563892982174], [107.35686239379287, -6.948606996043415], [107.35683399287882, -6.948614682296315]]]]}}, {"type": "Feature", "properties": {"id": null, "Pemanfaata": "kandang dmpk", "luas_dmpk": 4.87}, "geometry": {"type": "MultiPolygon", "coordinates": [[[[107.35683399287882, -6.948614682296315], [107.35686262129234, -6.94857886857396], [107.35686239379287, -6.948606996043415], [107.35683399287882, -6.948614682296315]]]]}}, {"type": "Feature", "properties": {"id": null, "Pemanfaata": "alat ukur debit air", "luas_dmpk": 10.24}, "geometry": {"type": "MultiPolygon", "coordinates": [[[[107.35654762621921, -6.949137690024356], [107.35655887043775, -6.949125365737782], [107.35656472680154, -6.949130946546838], [107.3565621500015, -6.949134667086171], [107.35658042185656, -6.949152572181299], [107.35658487269309, -6.949148154041007], [107.35659822520256, -6.949160710860677], [107.35659541414795, -6.949163733798695], [107.35660197327542, -6.949170012208365], [107.35659635116615, -6.949175825550577], [107.35658885502048, -6.949172570078948], [107.35658580971129, -6.949177453286385], [107.35656988040171, -6.949160245793288], [107.35657245720178, -6.949156757787854], [107.35655699640132, -6.949141410563637], [107.35655371683758, -6.949143270833266], [107.35654762621921, -6.949137690024356]]]]}}]}