{"type": "FeatureCollection", "features": [{"type": "Feature", "properties": {"id": null, "NAMA": "BATAS DESA"}, "geometry": {"type": "MultiLineString", "coordinates": [[[107.3572315216577, -6.947716783876976], [107.35722279321463, -6.947730739498611], [107.3572073424459, -6.9477731189126], [107.35718782568541, -6.947905504105039], [107.35716017694142, -6.947994299030301], [107.35715529775132, -6.948023359184018], [107.35719433127227, -6.948163816568324], [107.35715855054472, -6.948415671083383], [107.35717603430929, -6.948507694814839], [107.35711748402787, -6.948625549742865], [107.35709878046575, -6.948711115630998], [107.35699469107657, -6.948825741607679], [107.35688978848903, -6.94891776525887], [107.3567547975624, -6.949043692331311], [107.35667591732214, -6.949100198057979], [107.35659703708194, -6.9491518604307], [107.35653767360218, -6.949209173368804], [107.35647343093231, -6.949276980216122], [107.3564482217833, -6.949304425842019], [107.35640593546896, -6.949345594277859], [107.35636157942531, -6.949426776760355]]]}}]}