{
"type": "FeatureCollection",
"name": "batas_administrasi",
"crs": { "type": "name", "properties": { "name": "urn:ogc:def:crs:OGC:1.3:CRS84" } },
"features": [
{"type":"Feature","properties":{"id":null,"NAMA":"BATAS DESA"},"geometry":{"type":"MultiLineString","coordinates":[[[107.357231521657695,-6.947716783876976],[107.357222793214632,-6.947730739498611],[107.357207342445903,-6.9477731189126],[107.357187825685415,-6.947905504105039],[107.35716017694142,-6.947994299030301],[107.357155297751319,-6.948023359184018],[107.357194331272268,-6.948163816568324],[107.357158550544725,-6.948415671083383],[107.35717603430929,-6.948507694814839],[107.357117484027867,-6.948625549742865],[107.357098780465748,-6.948711115630998],[107.356994691076565,-6.948825741607679],[107.356889788489028,-6.94891776525887],[107.356754797562402,-6.949043692331311],[107.356675917322136,-6.949100198057979],[107.35659703708194,-6.9491518604307],[107.356537673602176,-6.949209173368804],[107.356473430932311,-6.949276980216122],[107.356448221783296,-6.949304425842019],[107.356405935468956,-6.949345594277859],[107.356361579425311,-6.949426776760355]]]}}
]
}
