{"type": "FeatureCollection", "features": [{"type": "Feature", "properties": {"fid": 1.0, "id": null, "NAMA": "BBWS NEGLASARI", "luas_1": 1799.0693804480761, "KODE PETA": "NGL-013"}, "geometry": {"type": "MultiPolygon", "coordinates": [[[[107.35723190424635, -6.947716234445118], [107.35723152165771, -6.947716783876976], [107.35729554560422, -6.947752965894552], [107.35726747438441, -6.947868347734032], [107.35724658503968, -6.947910504674743], [107.35722229382836, -6.94803241946612], [107.3572550367813, -6.948105463521837], [107.35724725609292, -6.948248859905762], [107.35725078486978, -6.94844821933984], [107.357239451252, -6.948488086297888], [107.35720519901625, -6.948624082925264], [107.35723499432046, -6.948623203303071], [107.35721473218419, -6.948695726772008], [107.35717465413154, -6.948736819028712], [107.35713581334966, -6.948776745425233], [107.3570089785204, -6.948887275824046], [107.35688762584971, -6.949014883925241], [107.35681509988945, -6.949072455068894], [107.35677694180312, -6.949105541637633], [107.3567402987395, -6.949134597974593], [107.35670267663876, -6.949169936355728], [107.35665302975303, -6.949215191516878], [107.35660125818322, -6.949263950425216], [107.35650151062164, -6.949339959404472], [107.35644078368328, -6.949418401091895], [107.35642072893701, -6.949469898819178], [107.35636157942531, -6.949426776760355], [107.35640593546896, -6.949345594277859], [107.35644822178331, -6.949304425842019], [107.35647343093231, -6.949276980216122], [107.35653767360218, -6.949209173368804], [107.35659703708195, -6.949151860430702], [107.35667591732215, -6.949100198057979], [107.3567547975624, -6.949043692331311], [107.35688978848903, -6.94891776525887], [107.35699469107657, -6.948825741607679], [107.35709878046575, -6.948711115630999], [107.35711748402787, -6.948625549742865], [107.35717603430929, -6.948507694814841], [107.35715855054472, -6.948415671083383], [107.35719433127227, -6.948163816568324], [107.35715529775132, -6.948023359184018], [107.35716017694142, -6.947994299030301], [107.35718782568541, -6.947905504105039], [107.35720734244592, -6.947773118912602], [107.35722279321463, -6.947730739498611], [107.35723190424635, -6.947716234445118]]]]}}]}