{"type": "FeatureCollection", "features": [{"type": "Feature", "properties": {"fid": 1, "id": null, "NAMA": "BBWS SARINAGEN", "KODE PETA": "SRG-016", "NIB": null, "LUAS": 1884.1085287415372, "LUAS TERDAMPAK": 1887.3382757288455}, "geometry": {"type": "MultiPolygon", "coordinates": [[[[107.35716640367241, -6.947679974837174], [107.35716675871447, -6.947680174671447], [107.35723165084974, -6.947716561307567], [107.35722279321463, -6.947730739498611], [107.3572073424459, -6.9477731189126], [107.35718782568541, -6.947905504105039], [107.35716017694142, -6.947994299030301], [107.35715529775132, -6.948023359184018], [107.35719433127227, -6.948163816568324], [107.35715855054472, -6.948415671083383], [107.35717603430929, -6.94850769481484], [107.35711748402787, -6.948625549742865], [107.35709878046575, -6.948711115630998], [107.35699469107657, -6.948825741607679], [107.35688978848903, -6.94891776525887], [107.3567547975624, -6.949043692331311], [107.35667591732214, -6.949100198057979], [107.35659703708194, -6.949151860430701], [107.35653767360218, -6.949209173368804], [107.35647343093231, -6.949276980216122], [107.3564482217833, -6.949304425842019], [107.35640593546896, -6.949345594277859], [107.35636138881051, -6.949427126307046], [107.35631906876172, -6.949396681072842], [107.35634968983351, -6.949317361023716], [107.35641358240017, -6.949267368492971], [107.35643643334734, -6.949235981087454], [107.3564414470099, -6.949229092082525], [107.35644168610212, -6.949228767230437], [107.35647353392787, -6.94918504139896], [107.35648476301725, -6.949169621303213], [107.35651732030117, -6.949124256246735], [107.35654387483822, -6.949087255372548], [107.3565738479066, -6.949045491139247], [107.35659028234056, -6.949022591530266], [107.3567344617797, -6.948985762311267], [107.35689948642744, -6.948829323594879], [107.35700152794084, -6.948697175105195], [107.35700400228755, -6.948684217062855], [107.35701626003127, -6.948620023311081], [107.35702674701167, -6.948565103110113], [107.35703592860388, -6.948519408585274], [107.35706154068123, -6.948524148087827], [107.35708112828979, -6.948488593815796], [107.35708279129854, -6.948461797950875], [107.3570837851835, -6.948437654454229], [107.35708835935999, -6.948349966828565], [107.35709761598285, -6.948172508215093], [107.35710566514456, -6.948018197095926], [107.35711298737344, -6.947877828459188], [107.35712609268313, -6.94778685208962], [107.35716640367241, -6.947679974837174]]]]}}]}