{
"type": "FeatureCollection",
"name": "bbws_ngl",
"crs": { "type": "name", "properties": { "name": "urn:ogc:def:crs:OGC:1.3:CRS84" } },
"features": [
{"type":"Feature","properties":{"fid":1,"id":null,"NAMA":"BBWS NEGLASARI","LUAS":null,"luas_1":1799.0693804480761,"KODE PETA":"NGL-013"},"geometry":{"type":"MultiPolygon","coordinates":[[[[107.357231904246348,-6.947716234445118],[107.35723152165771,-6.947716783876976],[107.357295545604217,-6.947752965894552],[107.357267474384415,-6.947868347734032],[107.357246585039675,-6.947910504674743],[107.357222293828357,-6.94803241946612],[107.357255036781297,-6.948105463521837],[107.357247256092919,-6.948248859905762],[107.357250784869777,-6.94844821933984],[107.357239451251999,-6.948488086297888],[107.357205199016249,-6.948624082925264],[107.357234994320464,-6.948623203303071],[107.35721473218419,-6.948695726772008],[107.357174654131541,-6.948736819028712],[107.357135813349657,-6.948776745425233],[107.357008978520398,-6.948887275824046],[107.356887625849708,-6.949014883925241],[107.356815099889445,-6.949072455068894],[107.356776941803119,-6.949105541637633],[107.356740298739496,-6.949134597974593],[107.356702676638761,-6.949169936355728],[107.356653029753033,-6.949215191516878],[107.356601258183218,-6.949263950425216],[107.356501510621641,-6.949339959404472],[107.356440783683283,-6.949418401091895],[107.35642072893701,-6.949469898819178],[107.356361579425311,-6.949426776760355],[107.356405935468956,-6.949345594277859],[107.35644822178331,-6.949304425842019],[107.356473430932311,-6.949276980216122],[107.356537673602176,-6.949209173368804],[107.356597037081954,-6.949151860430702],[107.35667591732215,-6.949100198057979],[107.356754797562402,-6.949043692331311],[107.356889788489028,-6.94891776525887],[107.356994691076565,-6.948825741607679],[107.357098780465748,-6.948711115630999],[107.357117484027867,-6.948625549742865],[107.35717603430929,-6.948507694814841],[107.357158550544725,-6.948415671083383],[107.357194331272268,-6.948163816568324],[107.357155297751319,-6.948023359184018],[107.35716017694142,-6.947994299030301],[107.357187825685415,-6.947905504105039],[107.357207342445918,-6.947773118912602],[107.357222793214632,-6.947730739498611],[107.357231904246348,-6.947716234445118]]]]}}
]
}
