{"type": "FeatureCollection", "features": [{"type": "Feature", "properties": {"fid": 1.0, "NO": null, "NAMA": "IMAS MALIA", "KET": "Area Tidak Terpakai", "WILAYAH": "Cilalanang", "LUAS_M2": 1130.49336144, "Kode_Peta": "NGL-005", "penggunaan": null, "alas hak": null, "luas alas": null, "keterangan": null, "KODE PETA": null}, "geometry": {"type": "MultiPolygon", "coordinates": [[[[107.35709820918304, -6.94959555609189], [107.35706175031333, -6.949620377717864], [107.3569806492441, -6.9496170507547275], [107.35691759504583, -6.9496638760477865], [107.3567297579185, -6.949867664782995], [107.35670142148268, -6.949841879217079], [107.35671898186713, -6.949808830397161], [107.35673064957832, -6.949791874262409], [107.35673452614928, -6.949758419829907], [107.3566602961557, -6.949728692394844], [107.35663534318323, -6.94969925392522], [107.35661864784988, -6.949691524925205], [107.35660501718327, -6.949693037425238], [107.35659299568327, -6.949687632091905], [107.35659035668327, -6.949680570091879], [107.35656657551658, -6.949681146925242], [107.3565542018499, -6.949667014758582], [107.35654761816316, -6.949661302674228], [107.35654498847174, -6.949652276103224], [107.3565452198846, -6.949641082997508], [107.35654646134992, -6.949632437091889], [107.35655832701661, -6.9496122175918655], [107.35658431451266, -6.949587716331439], [107.35665395399595, -6.9496378719997995], [107.35680107281233, -6.9494404102739145], [107.35683904858213, -6.949454392141715], [107.35704386500022, -6.949545664101115], [107.35709820918304, -6.94959555609189]]]]}}, {"type": "Feature", "properties": {"fid": 3.0, "NO": null, "NAMA": "CUCU SOLIHAT", "KET": "Area Tidak Terpakai", "WILAYAH": "Cilalanang", "LUAS_M2": 46.4443101107, "Kode_Peta": "NGL-002", "penggunaan": null, "alas hak": null, "luas alas": null, "keterangan": null, "KODE PETA": null}, "geometry": {"type": "MultiPolygon", "coordinates": [[[[107.35651010884995, -6.949571455925257], [107.35649703691197, -6.949575352380928], [107.35647980212534, -6.949574672870349], [107.35645832672414, -6.949568274993844], [107.3564493035414, -6.949563345685514], [107.3564434055166, -6.949558771758581], [107.35645602493075, -6.949495319691707], [107.35652426653101, -6.949544468623352], [107.35650808784996, -6.949565996758553], [107.35651010884995, -6.949571455925257]]]]}}, {"type": "Feature", "properties": {"fid": 4.0, "NO": null, "NAMA": "H.ADE ALIAS A MUNIR SYARONI", "KET": "Area Tidak Terpakai", "WILAYAH": "Cilalanang", "LUAS_M2": 797.762947904, "Kode_Peta": "NGL-006", "penggunaan": null, "alas hak": null, "luas alas": null, "keterangan": null, "KODE PETA": null}, "geometry": {"type": "MultiPolygon", "coordinates": [[[[107.35707669251637, -6.949247017258569], [107.35708808484969, -6.949335879925241], [107.35713931367839, -6.9494999432203315], [107.35709682433452, -6.949544338289799], [107.35704386500022, -6.949545664101132], [107.35683904858212, -6.9494543921417495], [107.35683730837533, -6.949427079993197], [107.35683673264347, -6.949392547903929], [107.35696897948058, -6.949215047067065], [107.35699522364558, -6.949218393364211], [107.35706480959759, -6.94923530980391], [107.35707669251637, -6.949247017258569]]]]}}, {"type": "Feature", "properties": {"fid": 5.0, "NO": null, "NAMA": "SITI SARAH SOPIAH", "KET": "Area Tidak Terpakai", "WILAYAH": "Cilalanang", "LUAS_M2": 46.0998961392, "Kode_Peta": "NGL-004", "penggunaan": null, "alas hak": null, "luas alas": null, "keterangan": null, "KODE PETA": null}, "geometry": {"type": "MultiPolygon", "coordinates": [[[[107.35658431451266, -6.949587716331439], [107.35655832701661, -6.9496122175918655], [107.3565541733927, -6.949612233930515], [107.3565310903615, -6.949600785738536], [107.35652244746667, -6.949595328422367], [107.35652001375995, -6.949587209624281], [107.35651540830709, -6.9495755144668365], [107.35651010884995, -6.949571455925257], [107.35650808784996, -6.949565996758553], [107.35652426653101, -6.949544468623352], [107.35658431451266, -6.949587716331439]]]]}}, {"type": "Feature", "properties": {"fid": 6.0, "NO": null, "NAMA": "SITI SARAH SOPIAH", "KET": "Area Tidak Terpakai", "WILAYAH": "Cilalanang", "LUAS_M2": 46.0998961392, "Kode_Peta": "NGL-004", "penggunaan": null, "alas hak": null, "luas alas": null, "keterangan": null, "KODE PETA": null}, "geometry": {"type": "MultiPolygon", "coordinates": [[[[107.35683730837535, -6.949427079993164], [107.35683904858213, -6.949454392141715], [107.35680107281233, -6.9494404102739145], [107.35683673264349, -6.949392547903929], [107.35683730837535, -6.949427079993164]]]]}}, {"type": "Feature", "properties": {"fid": 7.0, "NO": null, "NAMA": "H. AISYAH (ALM)/ AGUS MF", "KET": "Area Tidak Terpakai", "WILAYAH": "Cilalanang", "LUAS_M2": 35.0226492605, "Kode_Peta": "NGL-001", "penggunaan": null, "alas hak": null, "luas alas": null, "keterangan": null, "KODE PETA": null}, "geometry": {"type": "MultiPolygon", "coordinates": [[[[107.35645602493075, -6.949495319691724], [107.3564434055166, -6.949558771758598], [107.35640887818329, -6.949537862258559], [107.35640549634995, -6.949509013925272], [107.35642072893704, -6.94946989881918], [107.35645602493075, -6.949495319691724]]]]}}, {"type": "Feature", "properties": {"fid": 8.0, "NO": null, "NAMA": "H CECEP ANWAR", "KET": "Area Tidak Terpakai", "WILAYAH": "Cilalanang", "LUAS_M2": 740.5094307909999, "Kode_Peta": "NGL-007", "penggunaan": null, "alas hak": null, "luas alas": null, "keterangan": null, "KODE PETA": null}, "geometry": {"type": "MultiPolygon", "coordinates": [[[[107.35728286801627, -6.949023845258597], [107.357303746683, -6.949052113425238], [107.35731996744589, -6.949071197435966], [107.3573264424967, -6.949069428695097], [107.35733848059922, -6.949083380780816], [107.35730572968292, -6.949144438591915], [107.35720189102474, -6.949278046384579], [107.3571325002842, -6.949239296636001], [107.35710680426675, -6.949237924746037], [107.35707669251637, -6.949247017258569], [107.35706480959759, -6.94923530980391], [107.35699522364558, -6.949218393364211], [107.35696897948058, -6.949215047067065], [107.35707518099593, -6.949072503999874], [107.35712648189929, -6.948999486297948], [107.35712849660202, -6.949001091434052], [107.35714948755825, -6.948996661059861], [107.35714864939594, -6.949001225332484], [107.35720533375299, -6.948997259193835], [107.3572498019875, -6.949006520828515], [107.35724975505218, -6.949011752938923], [107.35726751034962, -6.949015536425272], [107.35728286801627, -6.949023845258597]]]]}}, {"type": "Feature", "properties": {"fid": 11.0, "NO": null, "NAMA": "MISRIYAH", "KET": "Area Tidak Terpakai", "WILAYAH": "Cilalanang", "LUAS_M2": 1113.0910775, "Kode_Peta": "NGL-008", "penggunaan": null, "alas hak": null, "luas alas": null, "keterangan": null, "KODE PETA": null}, "geometry": {"type": "MultiPolygon", "coordinates": [[[[107.35746231294375, -6.948648661734845], [107.35747431271044, -6.948667478352386], [107.35747435551116, -6.948691386411554], [107.35748377867938, -6.94870958313102], [107.3574954259082, -6.948729804744955], [107.35749805071345, -6.9487504132331654], [107.35749357023535, -6.948820212587672], [107.35750562829796, -6.948830927862581], [107.35750439560589, -6.94884461052294], [107.35751707946172, -6.948853247326601], [107.35751279739019, -6.948869669128874], [107.35752931052605, -6.94895185471574], [107.3575346971518, -6.948980067187537], [107.35754429631926, -6.948994094379293], [107.35753858447525, -6.949007220865417], [107.35755177877802, -6.9490254980316095], [107.35742970918285, -6.949009235591904], [107.3574071455162, -6.948988300091902], [107.35740332834955, -6.94897974375856], [107.35737825368291, -6.9489807520918765], [107.35735864334956, -6.948972565758586], [107.35728286801627, -6.949023845258597], [107.35726751034962, -6.949015536425272], [107.35724975505218, -6.949011752938923], [107.3572498019875, -6.949006520828515], [107.35720533375299, -6.948997259193835], [107.35714864939594, -6.949001225332484], [107.35714948755825, -6.948996661059861], [107.35712849660202, -6.949001091434052], [107.35712648189929, -6.948999486297948], [107.35735903999588, -6.948668480999901], [107.35736160572088, -6.948661939335938], [107.3574090167752, -6.948643894310819], [107.35746231294375, -6.948648661734845]]]]}}, {"type": "Feature", "properties": {"fid": 16.0, "NO": null, "NAMA": "IDRIS", "KET": "Area Tidak Terpakai", "WILAYAH": "Cilalanang", "LUAS_M2": 160.734971269, "Kode_Peta": "NGL-009", "penggunaan": null, "alas hak": null, "luas alas": null, "keterangan": null, "KODE PETA": null}, "geometry": {"type": "MultiPolygon", "coordinates": [[[[107.35746231294375, -6.948648661734845], [107.3574090167752, -6.948643894310819], [107.35736160572088, -6.948661939335938], [107.3574441489959, -6.948451483999902], [107.3574433984263, -6.948385324476651], [107.35744739767722, -6.948385126431772], [107.35747617016156, -6.948569791683987], [107.35747700627277, -6.948596206361749], [107.35746231294375, -6.948648661734845]]]]}}, {"type": "Feature", "properties": {"fid": 17.0, "NO": null, "NAMA": "H ENI", "KET": "Area Tidak Terpakai", "WILAYAH": "Cilalanang", "LUAS_M2": 332.047027785, "Kode_Peta": "NGL-011", "penggunaan": null, "alas hak": null, "luas alas": null, "keterangan": null, "KODE PETA": null}, "geometry": {"type": "MultiPolygon", "coordinates": [[[[107.35744739767722, -6.948385126431772], [107.3574433984263, -6.948385324476651], [107.35744296299586, -6.9483469429998514], [107.35744117848942, -6.94797215025873], [107.35747004204791, -6.948042225768517], [107.35757463839545, -6.948315202644327], [107.35750196251894, -6.948347384758416], [107.35744739767722, -6.948385126431772]]]]}}, {"type": "Feature", "properties": {"fid": 23.0, "NO": null, "NAMA": "IMAS MALIA", "KET": "Area Terpakai", "WILAYAH": "Cilalanang", "LUAS_M2": 163.14875059, "Kode_Peta": "NGL-005", "penggunaan": "PERTANIAN", "alas hak": "SHM", "luas alas": "1345", "keterangan": "TERKENA SEBAGIAN", "KODE PETA": "NGL-005"}, "geometry": {"type": "MultiPolygon", "coordinates": [[[[107.35680107281233, -6.9494404102739145], [107.35665395399595, -6.949637871999817], [107.35658431451266, -6.9495877163314566], [107.35664459984991, -6.949522884591832], [107.35667660034986, -6.949502019258603], [107.35676418834984, -6.949468649425201], [107.35677738128139, -6.949431687555753], [107.35677776534759, -6.949431828960761], [107.35680107281233, -6.9494404102739145]]]]}}, {"type": "Feature", "properties": {"fid": 25.0, "NO": null, "NAMA": "CUCU SOLIHAT", "KET": "Area Terpakai", "WILAYAH": "Cilalanang", "LUAS_M2": 352.275444691, "Kode_Peta": "NGL-002", "penggunaan": "PERTANIAN", "alas hak": "SHM", "luas alas": "828", "keterangan": "TERKENA SEBAGIAN", "KODE PETA": "NGL-002"}, "geometry": {"type": "MultiPolygon", "coordinates": [[[[107.35672143050878, -6.949370267196275], [107.35668112551657, -6.949409020258592], [107.35662234218329, -6.949457480925193], [107.35657517984997, -6.949511777925219], [107.35652784801665, -6.949539702925271], [107.35652426653101, -6.949544468623387], [107.35645602493075, -6.949495319691707], [107.35646075884999, -6.949471516925215], [107.35653192001658, -6.949396981758534], [107.35661261351659, -6.9493156225919135], [107.35663116484989, -6.949293201091905], [107.35672143050878, -6.949370267196275]]]]}}, {"type": "Feature", "properties": {"fid": 26.0, "NO": null, "NAMA": "H.ADE ALIAS A MUNIR SYARONI", "KET": "Area Terpakai", "WILAYAH": "Cilalanang", "LUAS_M2": 50.5312576994, "Kode_Peta": "NGL-006", "penggunaan": "PERTANIAN", "alas hak": "SPPT", "luas alas": null, "keterangan": "TERKENA SEBAGIAN", "KODE PETA": "NGL-006"}, "geometry": {"type": "MultiPolygon", "coordinates": [[[[107.35696897948058, -6.949215047067065], [107.35683673264347, -6.949392547903929], [107.3568364513901, -6.949375678455034], [107.35686724270192, -6.949325861685528], [107.3569340374346, -6.949210591732588], [107.35696897948058, -6.949215047067065]]]]}}, {"type": "Feature", "properties": {"fid": 27.0, "NO": null, "NAMA": "SITI SARAH SOPIAH", "KET": "Area Terpakai", "WILAYAH": "Cilalanang", "LUAS_M2": 493.951211415, "Kode_Peta": "NGL-004", "penggunaan": "PERTANIAN", "alas hak": "SPPT", "luas alas": "300", "keterangan": "TERKENA SEBAGIAN", "KODE PETA": "NGL-004"}, "geometry": {"type": "MultiPolygon", "coordinates": [[[[107.35683673264349, -6.949392547903929], [107.35680107281233, -6.9494404102739145], [107.35677776534759, -6.949431828960761], [107.35676418834984, -6.949468649425201], [107.35667660034986, -6.949502019258603], [107.35664459984991, -6.949522884591832], [107.35658431451266, -6.9495877163314566], [107.35652426653101, -6.949544468623387], [107.35652784801665, -6.949539702925271], [107.35657517984997, -6.949511777925219], [107.35662234218329, -6.949457480925193], [107.35668112551657, -6.949409020258592], [107.35672143050878, -6.949370267196275], [107.35682807731946, -6.949264330304227], [107.35684052468321, -6.949238995091936], [107.35689200196262, -6.94918579738788], [107.35693152901649, -6.949144506258563], [107.35693403743463, -6.949210591732572], [107.35686724270194, -6.9493258616855105], [107.35683645139012, -6.949375678455051], [107.35683673264349, -6.949392547903929]]]]}}, {"type": "Feature", "properties": {"fid": 28.0, "NO": null, "NAMA": "AGUS MIFTAH FARID", "KET": "Area Terpakai", "WILAYAH": "Cilalanang", "LUAS_M2": 404.830566199, "Kode_Peta": "NGL-003", "penggunaan": "PERTANIAN", "alas hak": "SHM", "luas alas": "828", "keterangan": null, "KODE PETA": "NGL-003"}, "geometry": {"type": "MultiPolygon", "coordinates": [[[[107.35693152901645, -6.949144506258547], [107.3568920019626, -6.949185797387897], [107.35684052468316, -6.949238995091951], [107.35682807731945, -6.949264330304243], [107.35672143050876, -6.949370267196275], [107.3566311648499, -6.949293201091922], [107.35668183084984, -6.949236413091923], [107.35678589551648, -6.949150692258593], [107.35684609168315, -6.949121688925231], [107.35692503791009, -6.949099613321459], [107.35692530818307, -6.949100225425257], [107.35693152901645, -6.949144506258547]]]]}}, {"type": "Feature", "properties": {"fid": 29.0, "NO": null, "NAMA": "H. AISYAH (ALM)/ AGUS MF", "KET": "Area Terpakai", "WILAYAH": "Cilalanang", "LUAS_M2": 394.898320654, "Kode_Peta": "NGL-001", "penggunaan": "PERTANIAN", "alas hak": "SPPT", "luas alas": "430", "keterangan": "TERKENA SEBAGIAN", "KODE PETA": "NGL-001"}, "geometry": {"type": "MultiPolygon", "coordinates": [[[[107.35692503791009, -6.949099613321459], [107.35684609168315, -6.949121688925231], [107.35678589551648, -6.949150692258593], [107.35668183084984, -6.949236413091923], [107.3566311648499, -6.949293201091922], [107.35661261351656, -6.9493156225919135], [107.35653192001658, -6.949396981758534], [107.35646075884998, -6.949471516925231], [107.35645602493075, -6.949495319691724], [107.35642072893704, -6.94946989881918], [107.35644078368328, -6.949418401091896], [107.35650220501661, -6.949339822425259], [107.35660125818322, -6.949263950425216], [107.35675476134982, -6.949121143091939], [107.35688762584975, -6.949014883925242], [107.35692503791009, -6.949099613321459]]]]}}, {"type": "Feature", "properties": {"fid": 30.0, "NO": null, "NAMA": "H CECEP ANWAR", "KET": "Area Terpakai", "WILAYAH": "Cilalanang", "LUAS_M2": 497.607929605, "Kode_Peta": "NGL-007", "penggunaan": "PERTANIAN", "alas hak": "SPPT", "luas alas": "1982", "keterangan": "TERKENA SEBAGIAN", "KODE PETA": "NGL-007"}, "geometry": {"type": "MultiPolygon", "coordinates": [[[[107.35712648189929, -6.948999486297948], [107.35707518099593, -6.949072503999874], [107.35696897948058, -6.949215047067065], [107.3569340374346, -6.949210591732588], [107.35693152901645, -6.949144506258547], [107.35692530818307, -6.949100225425257], [107.35692503791009, -6.949099613321459], [107.35688762584975, -6.949014883925242], [107.35700900100103, -6.948886597452927], [107.3570524226059, -6.9489276612083], [107.3570759287283, -6.9489356888062295], [107.35707753628604, -6.948952770228366], [107.35709499674789, -6.948974401723644], [107.35712648189929, -6.948999486297948]]]]}}, {"type": "Feature", "properties": {"fid": 34.0, "NO": null, "NAMA": "MISRIYAH", "KET": "Area Terpakai", "WILAYAH": "Cilalanang", "LUAS_M2": 524.818087423, "Kode_Peta": "NGL-008", "penggunaan": "PERTANIAN", "alas hak": "SHM", "luas alas": "1700", "keterangan": "TERKENA SEBAGIAN", "KODE PETA": "NGL-008"}, "geometry": {"type": "MultiPolygon", "coordinates": [[[[107.35712648189929, -6.948999486297948], [107.35709499674789, -6.948974401723644], [107.35707753628604, -6.948952770228366], [107.3570759287283, -6.9489356888062295], [107.3570524226059, -6.9489276612083], [107.35700900100103, -6.948886597452927], [107.35713581334969, -6.948776745425235], [107.35721473218419, -6.948695726772008], [107.3572711626377, -6.9486812081041665], [107.35732237596321, -6.94867687049021], [107.35736160572088, -6.948661939335938], [107.35735903999588, -6.948668480999901], [107.35712648189929, -6.948999486297948]]]]}}, {"type": "Feature", "properties": {"fid": 39.0, "NO": null, "NAMA": "IDRIS", "KET": "Area Terpakai", "WILAYAH": "Cilalanang", "LUAS_M2": 581.077288774, "Kode_Peta": "NGL-009", "penggunaan": "PERTANIAN", "alas hak": "SHM", "luas alas": "711", "keterangan": "TERKENA SEBAGIAN", "KODE PETA": "NGL-009"}, "geometry": {"type": "MultiPolygon", "coordinates": [[[[107.3574433984263, -6.948385324476651], [107.3574441489959, -6.948451483999902], [107.35736160572088, -6.948661939335938], [107.35732237596321, -6.94867687049021], [107.3572711626377, -6.9486812081041665], [107.35721473218419, -6.948695726772008], [107.35723499432046, -6.948623203303071], [107.35720519901626, -6.948624082925263], [107.35723945125203, -6.948488086297887], [107.35724010400513, -6.948485494577049], [107.35725078486979, -6.948448219339842], [107.35731643856855, -6.948424321469466], [107.35735879813178, -6.9484002486323355], [107.35736666575716, -6.948402037947882], [107.35737930153148, -6.94837926262152], [107.35740324273675, -6.948387313004087], [107.3574231140138, -6.948386328970152], [107.3574433984263, -6.948385324476651]]]]}}, {"type": "Feature", "properties": {"fid": 40.0, "NO": null, "NAMA": "H TAJUL", "KET": "Area Terpakai", "WILAYAH": "Cilalanang", "LUAS_M2": 660.30991043, "Kode_Peta": "NGL-010", "penggunaan": "PERTANIAN", "alas hak": "SPPT", "luas alas": "660", "keterangan": "TERKENA SELURUHNYA", "KODE PETA": "NGL-010"}, "geometry": {"type": "MultiPolygon", "coordinates": [[[[107.35737930153148, -6.94837926262152], [107.35736666575716, -6.948402037947882], [107.35735879813178, -6.9484002486323355], [107.35731643856855, -6.948424321469466], [107.35725078486979, -6.948448219339842], [107.35724725609293, -6.948248859905766], [107.3572550367813, -6.948105463521838], [107.35722229382839, -6.94803241946612], [107.35724668911436, -6.9479096477667595], [107.35735208968289, -6.9478904479252686], [107.35731507714263, -6.9480802879957], [107.3573352891436, -6.948092819770056], [107.35733184019674, -6.948184097573605], [107.3573589203486, -6.948269306425338], [107.3573880946041, -6.948329044762786], [107.35737930153148, -6.94837926262152]]]]}}, {"type": "Feature", "properties": {"fid": 41.0, "NO": null, "NAMA": "H ENI", "KET": "Area Terpakai", "WILAYAH": "Cilalanang", "LUAS_M2": 556.562499829, "Kode_Peta": "NGL-011", "penggunaan": "PERTANIAN, KANDANG AYAM", "alas hak": "SURAT PERJANJIAN", "luas alas": "800", "keterangan": null, "KODE PETA": "NGL-011"}, "geometry": {"type": "MultiPolygon", "coordinates": [[[[107.35744117848942, -6.94797215025873], [107.35744296299586, -6.9483469429998514], [107.3574433984263, -6.948385324476651], [107.3574231140138, -6.948386328970152], [107.35740324273675, -6.948387313004087], [107.35737930153148, -6.94837926262152], [107.3573880946041, -6.948329044762786], [107.3573589203486, -6.948269306425338], [107.35733184019674, -6.948184097573605], [107.3573352891436, -6.948092819770056], [107.35731507714263, -6.9480802879957], [107.35735208968289, -6.9478904479252686], [107.35741786498532, -6.947915549255288], [107.35744117848942, -6.94797215025873]]]]}}]}