{"type": "FeatureCollection", "features": [{"type": "Feature", "properties": {"fid": 1.0, "id": "y6CdSXSxCDiFPk0b1Flx73QITY4gHCUw", "NAMA": "AAS", "DESA": "SARINAGEN", "KODE PETA": "SRG-009", "NIB": "SPPT", "LUAS": "263.53", "layer": "Aas", "path": "C:/Users/hp/Downloads/BhumiAtr-20260813T181010Z-1-001/BhumiAtr/Aas.json|layername=Aas", "LUAS2": 264, "L5": 263.584148868802, "PENGUNAAN": "SAWAH", "LUAS_NEW": 263.584148868802, "LUAS TERDA": null}, "geometry": {"type": "MultiPolygon", "coordinates": [[[[107.357047829034, -6.948460181591494], [107.35702674701167, -6.948565103110113], [107.35681822137684, -6.94852751898236], [107.3568252521348, -6.948436327287908], [107.357047829034, -6.948460181591494]]]]}}, {"type": "Feature", "properties": {"fid": 2.0, "id": "RCQCrjdfhVa1LJznGvk3Q4v3FuYhZGW0", "NAMA": "ARIF", "DESA": "SARINAGEN", "KODE PETA": "SRG-013", "NIB": "SHM", "LUAS": "82", "layer": "ARIF1", "path": "C:/Users/hp/Downloads/BhumiAtr-20260813T181010Z-1-001/BhumiAtr/H_Rahmat.json|layername=H_Rahmat", "LUAS2": 84, "L5": 83.67122388875578, "PENGUNAAN": "PERMUKIMAN", "LUAS_NEW": 83.67122388875578, "LUAS TERDA": null}, "geometry": {"type": "MultiPolygon", "coordinates": [[[[107.35705210197837, -6.947773782488693], [107.35698263140205, -6.947762338665072], [107.3569119152931, -6.947756092336817], [107.3569256133777, -6.94769684523343], [107.35699341860442, -6.947697495826986], [107.35705790725946, -6.947774754442857], [107.35705210197837, -6.947773782488693]]]]}}, {"type": "Feature", "properties": {"fid": 3.0, "id": "qheerBEY4vr6L6K0xiiorwH2C0Z8DXMe", "NAMA": "ASEP NANDANG", "DESA": "SARINAGEN", "KODE PETA": "SRG-007", "NIB": "3263", "LUAS": "272", "layer": "Asep_Nandang", "path": "C:/Users/hp/Downloads/BhumiAtr-20260813T181010Z-1-001/BhumiAtr/Asep_Nandang.json|layername=Asep_Nandang", "LUAS2": 270, "L5": 271.0262428794522, "PENGUNAAN": "SAWAH", "LUAS_NEW": 271.0262428794522, "LUAS TERDA": null}, "geometry": {"type": "MultiPolygon", "coordinates": [[[[107.35700152794084, -6.948697175105195], [107.35689948642744, -6.948829323594879], [107.35677441803972, -6.948682889391179], [107.35678991644824, -6.948627053985334], [107.35700152794084, -6.948697175105195]]]]}}, {"type": "Feature", "properties": {"fid": 4.0, "id": null, "NAMA": "H RAHMAT", "DESA": "SARINAGEN", "KODE PETA": "SRG-012", "NIB": null, "LUAS": "50.65", "layer": "H RAHMAT", "path": "C:/2026/larap cilanang-cijambu/ANYAR/H RAHMAT.shp", "LUAS2": 48, "L5": 50.653620729022805, "PENGUNAAN": "PERKEBUNAN", "LUAS_NEW": 50.653620729022805, "LUAS TERDA": null}, "geometry": {"type": "MultiPolygon", "coordinates": [[[[107.35700518416766, -6.947684570849062], [107.35701082808276, -6.947689346406807], [107.35706794575027, -6.947737688651602], [107.35711146102169, -6.947774495751855], [107.35711727233668, -6.947779401858378], [107.35712375493257, -6.94778486788262], [107.3571259614978, -6.947786741302518], [107.35712609268302, -6.947786852091333], [107.3570879243497, -6.947789521425272], [107.35705947829868, -6.947788731761102], [107.35705791052652, -6.947774762659918], [107.35705565617518, -6.947772063844087], [107.35702955143945, -6.947740779302186], [107.35700585499931, -6.947712387102917], [107.35699557336515, -6.947700078693894], [107.35699341860442, -6.947697495826986], [107.35699624925054, -6.947694420088023], [107.35700518416766, -6.947684570849062]]]]}}, {"type": "Feature", "properties": {"fid": 5.0, "id": "qQCoCc9lnJan9FVL5QM7xhCLcbR3K6Vd", "NAMA": "H ENI", "DESA": "SARINAGEN", "KODE PETA": "SRG-005", "NIB": "SPPT", "LUAS": "211.86", "layer": "H._Eni", "path": "C:/Users/hp/Downloads/BhumiAtr-20260813T181010Z-1-001/BhumiAtr/H._Eni.json|layername=H._Eni", "LUAS2": 212, "L5": 211.04622024034325, "PENGUNAAN": "SAWAH", "LUAS_NEW": 211.04622024034325, "LUAS TERDA": null}, "geometry": {"type": "MultiPolygon", "coordinates": [[[[107.35678140731544, -6.94865770539514], [107.35677441803972, -6.948682889391179], [107.3567746113783, -6.94882544266085], [107.35669511844821, -6.948773877101189], [107.35666496467013, -6.948766061119017], [107.35666954493848, -6.948735067763465], [107.3566623365009, -6.948704448924602], [107.35667898311169, -6.94860904139837], [107.35678140731544, -6.94865770539514]]]]}}, {"type": "Feature", "properties": {"fid": 6.0, "id": "4PBHyREwD1it1SzW8x5QpVYCAieFwWIR", "NAMA": "HALIM RUSMANA", "DESA": "NEGLASARI", "KODE PETA": "SRG-001", "NIB": "0", "LUAS": "635.14", "layer": "HALIM", "path": "C:/2026/larap cilanang-cijambu/New maps18/HALIM.json|layername=HALIM", "LUAS2": 635, "L5": 635.1391997784376, "PENGUNAAN": null, "LUAS_NEW": 635.1391997784376, "LUAS TERDA": null}, "geometry": {"type": "MultiPolygon", "coordinates": [[[[107.35629789218336, -6.949312850758578], [107.35634968984996, -6.949317360591928], [107.35632335390687, -6.949385837442547], [107.35627657644945, -6.949504208254884], [107.35600854427861, -6.949198222021298], [107.3560889654602, -6.949129493029886], [107.35623062235003, -6.949220640758597], [107.35629789218336, -6.949312850758578]]]]}}, {"type": "Feature", "properties": {"fid": 7.0, "id": "4IXSZB3d5693AJVc7dgz9J8hGL5VvZVf", "NAMA": "HOLID", "DESA": "SARINAGEN", "KODE PETA": "SRG-004", "NIB": "3268", "LUAS": "305", "layer": "Holid (1)", "path": "C:/Users/hp/Downloads/BhumiAtr-20260813T181010Z-1-001/BhumiAtr/Holid (1).json|layername=Holid (1)", "LUAS2": 307, "L5": 306.3883386227535, "PENGUNAAN": "SAWAH", "LUAS_NEW": 306.3883386227535, "LUAS TERDA": null}, "geometry": {"type": "MultiPolygon", "coordinates": [[[[107.35678725988497, -6.948866171495536], [107.35670671508029, -6.948955189711356], [107.35671052643677, -6.948977811771158], [107.35673446178654, -6.948985762315305], [107.35659028234056, -6.949022591530266], [107.35667662090245, -6.948769087599957], [107.35669511844821, -6.948773877101189], [107.35677456608585, -6.94882533417622], [107.35678725988497, -6.948866171495536]]]]}}, {"type": "Feature", "properties": {"fid": 8.0, "id": null, "NAMA": "IIP PERMANA2", "DESA": "SARINAGEN", "KODE PETA": "SRG-002", "NIB": null, "LUAS": "875.8", "layer": "IIP PERMANA2", "path": "C:/2026/larap cilanang-cijambu/akhir maping report/13-8-2026/sarinagen/IIP PERMANA2.shp", "LUAS2": 876, "L5": 875.6061631630291, "PENGUNAAN": "SAWAH", "LUAS_NEW": 875.6061631630291, "LUAS TERDA": null}, "geometry": {"type": "MultiPolygon", "coordinates": [[[[107.35646100027965, -6.948832475021173], [107.35646898284993, -6.948730334258609], [107.3564986191546, -6.948725654107519], [107.35651371505227, -6.948723270170563], [107.35652830177615, -6.948720966642089], [107.35655734498857, -6.948714051252082], [107.35653681384105, -6.948756460178444], [107.35653543256964, -6.948799810825117], [107.35653361692458, -6.948826301065296], [107.3565319205826, -6.94885976527766], [107.3565351609463, -6.948890451318324], [107.35653761849558, -6.948909883174008], [107.35654118327535, -6.94894236071288], [107.35654364903213, -6.948964327082991], [107.35654557232236, -6.948980925148411], [107.35654764064441, -6.94899940793853], [107.35653551907993, -6.949032276293925], [107.35652607170908, -6.949058497855676], [107.35651863216873, -6.94907856207058], [107.35651146891028, -6.949097326909851], [107.35650848734099, -6.94910538950399], [107.35650510573174, -6.949115308891134], [107.35650224545391, -6.949122311640297], [107.35649744075076, -6.949135711266964], [107.35649408157829, -6.94914437313412], [107.35648476301725, -6.949169621303213], [107.35641358240017, -6.949267368492971], [107.35634968984996, -6.949317360591928], [107.35629789218336, -6.949312850758578], [107.35627825245284, -6.949286159517142], [107.35623062235003, -6.949220640758597], [107.35631306675316, -6.949098139927659], [107.35641185861115, -6.949085867867062], [107.35644533042068, -6.949032978278509], [107.35644944683307, -6.948980306834915], [107.35646100027965, -6.948832475021173]]]]}}, {"type": "Feature", "properties": {"fid": 9.0, "id": "By3lthorxJMdqFF6GZqjyR3Avjl5J0xn", "NAMA": "IIP PERMANA2", "DESA": "SARINAGEN", "KODE PETA": "SRG-003", "NIB": "3267", "LUAS": "375", "layer": "Iip_Permana", "path": "C:/Users/hp/Downloads/BhumiAtr-20260813T181010Z-1-001/BhumiAtr/Iip_Permana.json|layername=Iip_Permana", "LUAS2": 376, "L5": 376.276880621037, "PENGUNAAN": "SAWAH", "LUAS_NEW": 376.276880621037, "LUAS TERDA": null}, "geometry": {"type": "MultiPolygon", "coordinates": [[[[107.35667662090245, -6.948769087599957], [107.35659028234056, -6.949022591530266], [107.35648476301725, -6.949169621303213], [107.35654764064441, -6.94899940793853], [107.3565319205826, -6.94885976527766], [107.35653681384105, -6.948756460178444], [107.35655734498857, -6.948714051252082], [107.35660160143664, -6.948749662292329], [107.35663534485735, -6.948765765956011], [107.35666507112853, -6.948765957566948], [107.35667662090245, -6.948769087599957]]]]}}, {"type": "Feature", "properties": {"fid": 10.0, "id": "6wwWERQUBr5r6E0xL1B4tavaeNVh3P8o", "NAMA": "MISRIAH", "DESA": "SARINAGEN", "KODE PETA": "SRG-014", "NIB": "3235", "LUAS": "120", "layer": "misriah", "path": "C:/Users/hp/Downloads/misriah.json|layername=misriah", "LUAS2": 121, "L5": 120.39619466211298, "PENGUNAAN": "PERMUKIMAN", "LUAS_NEW": 120.39619466211298, "LUAS TERDA": null}, "geometry": {"type": "MultiPolygon", "coordinates": [[[[107.35686593107937, -6.947599465780243], [107.35700882964585, -6.947677312408757], [107.35703341714759, -6.947645957485577], [107.3570379089059, -6.947648457106716], [107.356996254239, -6.947694425568233], [107.35699341860442, -6.947697495826986], [107.3569559217648, -6.947697160147989], [107.35691971789747, -6.947696672828993], [107.35686306556187, -6.947685042038742], [107.35684148599046, -6.947672384108827], [107.35683167709408, -6.947645120872764], [107.35686593107937, -6.947599465780243]]]]}}, {"type": "Feature", "properties": {"fid": 11.0, "id": "qezXtXNDNVFwH2Fl3JPFifcHMYIbc1Pm", "NAMA": "OPING", "DESA": "SARINAGEN", "KODE PETA": "SRG-008", "NIB": "3262", "LUAS": "314", "layer": "Oping", "path": "C:/Users/hp/Downloads/BhumiAtr-20260813T181010Z-1-001/BhumiAtr/Oping.json|layername=Oping", "LUAS2": 315, "L5": 314.91073337662965, "PENGUNAAN": "SAWAH", "LUAS_NEW": 314.91073337662965, "LUAS TERDA": null}, "geometry": {"type": "MultiPolygon", "coordinates": [[[[107.35702674701167, -6.948565103110113], [107.35700152794084, -6.948697175105195], [107.35678991644824, -6.948627053985334], [107.35681822137684, -6.94852751898236], [107.35702674701167, -6.948565103110113]]]]}}, {"type": "Feature", "properties": {"fid": 12.0, "id": "vcXCNKhIn0f1HZImM6Eep9j858s5qoud", "NAMA": "ROMLAH", "DESA": "SARINAGEN", "KODE PETA": "SRG-006", "NIB": "3266", "LUAS": "244", "layer": "Romlah", "path": "C:/Users/hp/Downloads/BhumiAtr-20260813T181010Z-1-001/BhumiAtr/Romlah.json|layername=Romlah", "LUAS2": 244, "L5": 242.9260592294304, "PENGUNAAN": "SAWAH", "LUAS_NEW": 242.9260592294304, "LUAS TERDA": null}, "geometry": {"type": "MultiPolygon", "coordinates": [[[[107.35689948642744, -6.948829323594879], [107.3567344617797, -6.948985762311267], [107.3567105165261, -6.948977811771159], [107.35670671082461, -6.948955223998113], [107.35678725740733, -6.948866171495538], [107.3567746113783, -6.94882544266085], [107.35677441803972, -6.948682889391179], [107.35689948642744, -6.948829323594879]]]]}}, {"type": "Feature", "properties": {"fid": 13.0, "id": "j3PZA24cY8651a5Rl99f9RcuZ3gYQSAb", "NAMA": "PLN", "DESA": "SARINAGEN", "KODE PETA": "SRG-015", "NIB": null, "LUAS": "947.11", "layer": "tanah_negara", "path": "C:/Users/hp/Downloads/tanah_negara.json|layername=tanah_negara", "LUAS2": 947, "L5": 944.7636601879494, "PENGUNAAN": null, "LUAS_NEW": 944.7636601879494, "LUAS TERDA": null}, "geometry": {"type": "MultiPolygon", "coordinates": [[[[107.35712202033773, -6.947532173141397], [107.3570537825935, -6.947616844461041], [107.35708210444045, -6.947632721231021], [107.35716640268598, -6.947679975392691], [107.35712609268298, -6.947786852091953], [107.3571211246547, -6.947782590333483], [107.35711719985376, -6.947779340524769], [107.35711146102169, -6.947774495751855], [107.35700518416766, -6.947684570849062], [107.35703790391744, -6.947648451626506], [107.35703341714759, -6.947645957485577], [107.35700882964585, -6.947677312408757], [107.3566619831119, -6.947488357212563], [107.35679734587825, -6.947380277903562], [107.35712202033773, -6.947532173141397]]]]}}, {"type": "Feature", "properties": {"fid": 14.0, "id": "RUUb2JXRGzOa1urcwKVtwhsqmDcNzjX6", "NAMA": "YAYAH ROKAYAH", "DESA": "SARINAGEN", "KODE PETA": "SRG-010", "NIB": "3259", "LUAS": "1817", "layer": "yayah1", "path": "C:/Users/hp/Downloads/BhumiAtr-20260813T181010Z-1-001/BhumiAtr/yayah2.json|layername=yayah2", "LUAS2": 2027, "L5": 2022.4063954565863, "PENGUNAAN": "SAWAH", "LUAS_NEW": 2022.4063954565863, "LUAS TERDA": null}, "geometry": {"type": "MultiPolygon", "coordinates": [[[[107.3571129870375, -6.947877828723203], [107.35708112828979, -6.948488593815796], [107.35706154068123, -6.948524148087827], [107.35703592860388, -6.948519408585274], [107.357047829034, -6.948460181591494], [107.3568252521348, -6.948436327287908], [107.35683152619987, -6.948403596873831], [107.35676604762278, -6.948386375268669], [107.35675541435148, -6.948438595616153], [107.35659988916552, -6.948367457701153], [107.35663873453603, -6.948174117752572], [107.35679150918912, -6.948192068476146], [107.3568061824724, -6.948176508997783], [107.35685137517802, -6.948128433653233], [107.35685220395872, -6.948127547627557], [107.35685320122103, -6.948126481445385], [107.35685420963286, -6.948125410959126], [107.35685857281022, -6.948121052770361], [107.3568841250236, -6.948095572614011], [107.35690235572156, -6.948077416772021], [107.35693212696026, -6.948046868449557], [107.35696181314444, -6.94801621781247], [107.35697567449584, -6.948001909243628], [107.35698004510648, -6.947997393646993], [107.35698428687826, -6.947993013321462], [107.3569849001017, -6.947992378776829], [107.35698884455304, -6.947988384588877], [107.35700287441246, -6.947975898611767], [107.3571129870375, -6.947877828723203]]]]}}, {"type": "Feature", "properties": {"fid": 15.0, "id": "quFDM0cEpJPiWU3VT8cwdJJGXkDDZdxS", "NAMA": "YAYAH ROKAYAH", "DESA": "SARINAGEN", "KODE PETA": "SRG-011", "NIB": "3241", "LUAS": "508", "layer": "Yayah2", "path": "C:/Users/hp/Downloads/BhumiAtr-20260813T181010Z-1-001/BhumiAtr/Yayah.json|layername=Yayah", "LUAS2": 633, "L5": 631.9965663868062, "PENGUNAAN": "PERKEBUNAN", "LUAS_NEW": 631.9965663868062, "LUAS TERDA": null}, "geometry": {"type": "MultiPolygon", "coordinates": [[[[107.3571129870375, -6.947877828723203], [107.35698822417908, -6.947988946586548], [107.35697952930958, -6.947997926598287], [107.3569114239947, -6.948068346229199], [107.35685423440952, -6.948125376526492], [107.35681370467935, -6.948168692788729], [107.35679150918912, -6.948192068476146], [107.35668457101862, -6.948179503449819], [107.35679033222078, -6.948051474236223], [107.35689767092919, -6.948011617698228], [107.35695391682378, -6.947893496940608], [107.35694375559262, -6.947893721088207], [107.35698069288583, -6.947762167436638], [107.35698263140205, -6.947762338665072], [107.35705790725946, -6.947774754442857], [107.35705947829868, -6.947788731761102], [107.3570879243497, -6.947789521425272], [107.35712609268298, -6.947786852091953], [107.3571129870375, -6.947877828723203]]]]}}]}