{"type":"FeatureCollection","name":"perkebunan","crs":{"type":"name","properties":{"name":"urn:ogc:def:crs:OGC:1.3:CRS84"}},"features":[{"type":"Feature","properties":{"id":null,"Nama":"YAYAH ROKAYAH","DesA":"SARINAGEN","KODE PETA":"SRG-010","Luas_dampk":632.75},"geometry":{"type":"MultiPolygon","coordinates":[[[[107.35668457101862,-6.94817950344982],[107.35679033222077,-6.948051474236222],[107.35689767092917,-6.948011617698227],[107.35695391682377,-6.947893496940608],[107.35694375559261,-6.947893721088205],[107.35698069288581,-6.947762167436638],[107.35698263140205,-6.947762338665072],[107.35705791052652,-6.947774762659919],[107.35705947829868,-6.9477887317611],[107.35708792434968,-6.947789521425273],[107.35712609268298,-6.947786852091953],[107.35711298703748,-6.947877828723202],[107.35700287441244,-6.947975898611765],[107.35693212696026,-6.948046868449557],[107.3569114239947,-6.948068346229198],[107.35690235572156,-6.94807741677202],[107.35685137517802,-6.948128433653232],[107.35681370467934,-6.948168692788729],[107.35679150918912,-6.948192068476146],[107.35668457101862,-6.94817950344982]]]]}},{"type":"Feature","properties":{"id":null,"Nama":"H. RAHMAT","DesA":"SARINAGEN","KODE PETA":"SRG-012","Luas_dampk":50.68},"geometry":{"type":"MultiPolygon","coordinates":[[[[107.3569934186044,-6.947697495826986],[107.35700518416766,-6.947684570849062],[107.35712609268298,-6.947786852091953],[107.35708792434968,-6.947789521425273],[107.35705947829868,-6.947788731761099],[107.35705791052652,-6.947774762659919],[107.35699557336515,-6.947700078693893],[107.3569934186044,-6.947697495826986]]]]}}]}