{"type": "FeatureCollection", "features": [{"type": "Feature", "properties": {"id": 11}, "geometry": {"type": "MultiPolygon", "coordinates": [[[[107.35686593107937, -6.947599465780243], [107.35700882964584, -6.947677312408755], [107.35700882964584, -6.947677312408755], [107.35703341714758, -6.947645957485578], [107.3570379089059, -6.947648457106714], [107.35700518416766, -6.947684570849062], [107.3569934186044, -6.947697495826986], [107.3569256133777, -6.94769684523343], [107.35691971789745, -6.947696672828992], [107.35686306556187, -6.947685042038741], [107.35684148599044, -6.947672384108826], [107.35683167709408, -6.947645120872765], [107.35686593107937, -6.947599465780243]]]]}}, {"type": "Feature", "properties": {"id": 12}, "geometry": {"type": "MultiPolygon", "coordinates": [[[[107.35705790725945, -6.947774754442857], [107.3569806928858, -6.947762167436638], [107.35691191529308, -6.947756092336817], [107.3569256133777, -6.94769684523343], [107.3569934186044, -6.947697495826986], [107.35705790725945, -6.947774754442857]]]]}}]}