{"type":"FeatureCollection","name":"pertanian_srg","crs":{"type":"name","properties":{"name":"urn:ogc:def:crs:OGC:1.3:CRS84"}},"features":[{"type":"Feature","properties":{"fid":1,"id":"","NAMA":"AAS","DESA":"SARINAGEN","KODE PETA":"SRG-009","NIB":"SPPT","LUAS":"263.53","layer":"Aas","path":"C:/Users/hp/Downloads/BhumiAtr-20260813T181010Z-1-001/BhumiAtr/Aas.json|layername=Aas","LUAS2":264,"PENGUNAAN":"PERTANIAN","LUAS_NEW":263.584148868802},"geometry":{"type":"MultiPolygon","coordinates":[[[[107.357047829034,-6.948460181591494],[107.35702674701167,-6.948565103110113],[107.35681822137684,-6.94852751898236],[107.3568252521348,-6.948436327287908],[107.357047829034,-6.948460181591494]]]]}},{"type":"Feature","properties":{"fid":3,"id":"","NAMA":"ASEP NANDANG","DESA":"SARINAGEN","KODE PETA":"SRG-007","NIB":"3263","LUAS":"272","layer":"Asep_Nandang","path":"C:/Users/hp/Downloads/BhumiAtr-20260813T181010Z-1-001/BhumiAtr/Asep_Nandang.json|layername=Asep_Nandang","LUAS2":270,"PENGUNAAN":"PERTANIAN","LUAS_NEW":271.0262428794522},"geometry":{"type":"MultiPolygon","coordinates":[[[[107.35700152794084,-6.948697175105195],[107.35689948642744,-6.948829323594879],[107.35677441803972,-6.948682889391179],[107.35678991644824,-6.948627053985334],[107.35700152794084,-6.948697175105195]]]]}},{"type":"Feature","properties":{"fid":5,"id":"","NAMA":"H ENI","DESA":"SARINAGEN","KODE PETA":"SRG-005","NIB":"SPPT","LUAS":"211.86","layer":"H._Eni","path":"C:/Users/hp/Downloads/BhumiAtr-20260813T181010Z-1-001/BhumiAtr/H._Eni.json|layername=H._Eni","LUAS2":212,"PENGUNAAN":"PERTANIAN","LUAS_NEW":211.04622024034325},"geometry":{"type":"MultiPolygon","coordinates":[[[[107.35678140731544,-6.94865770539514],[107.35677441803972,-6.948682889391179],[107.3567746113783,-6.94882544266085],[107.35669511844821,-6.948773877101189],[107.35666496467013,-6.948766061119017],[107.35666954493848,-6.948735067763465],[107.3566623365009,-6.948704448924602],[107.35667898311169,-6.94860904139837],[107.35678140731544,-6.94865770539514]]]]}},{"type":"Feature","properties":{"fid":6,"id":"","NAMA":"HALIM RUSMANA","DESA":"NEGLASARI","KODE PETA":"SRG-001","NIB":"0","LUAS":"635.14","layer":"HALIM","path":"C:/2026/larap cilanang-cijambu/New maps18/HALIM.json|layername=HALIM","LUAS2":635,"PENGUNAAN":"PERTANIAN","LUAS_NEW":635.1391997784376},"geometry":{"type":"MultiPolygon","coordinates":[[[[107.35629789218336,-6.949312850758578],[107.35634968984996,-6.949317360591928],[107.35632335390687,-6.949385837442547],[107.35627657644945,-6.949504208254884],[107.35600854427861,-6.949198222021298],[107.3560889654602,-6.949129493029886],[107.35623062235003,-6.949220640758597],[107.35629789218336,-6.949312850758578]]]]}},{"type":"Feature","properties":{"fid":7,"id":"","NAMA":"HOLID","DESA":"SARINAGEN","KODE PETA":"SRG-004","NIB":"3268","LUAS":"305","layer":"Holid (1)","path":"C:/Users/hp/Downloads/BhumiAtr-20260813T181010Z-1-001/BhumiAtr/Holid (1).json|layername=Holid (1)","LUAS2":307,"PENGUNAAN":"PERTANIAN","LUAS_NEW":306.3883386227535},"geometry":{"type":"MultiPolygon","coordinates":[[[[107.35678725988497,-6.948866171495536],[107.35670671508029,-6.948955189711356],[107.35671052643677,-6.948977811771158],[107.35673446178654,-6.948985762315305],[107.35659028234056,-6.949022591530266],[107.35667662090245,-6.948769087599957],[107.35669511844821,-6.948773877101189],[107.35677456608585,-6.94882533417622],[107.35678725988497,-6.948866171495536]]]]}},{"type":"Feature","properties":{"fid":8,"id":"","NAMA":"IIP PERMANA2","DESA":"SARINAGEN","KODE PETA":"SRG-002","NIB":null,"LUAS":"875.8","layer":"IIP PERMANA2","path":"C:/2026/larap cilanang-cijambu/akhir maping report/13-8-2026/sarinagen/IIP PERMANA2.shp","LUAS2":876,"PENGUNAAN":"PERTANIAN","LUAS_NEW":875.6061631630291},"geometry":{"type":"MultiPolygon","coordinates":[[[[107.35646100027965,-6.948832475021173],[107.35646898284993,-6.948730334258609],[107.3564986191546,-6.948725654107519],[107.35651371505227,-6.948723270170563],[107.35652830177615,-6.948720966642089],[107.35655734498857,-6.948714051252082],[107.35653681384105,-6.948756460178444],[107.35653543256964,-6.948799810825117],[107.35653361692458,-6.948826301065296],[107.3565319205826,-6.94885976527766],[107.3565351609463,-6.948890451318324],[107.35653761849558,-6.948909883174008],[107.35654118327535,-6.94894236071288],[107.35654364903213,-6.948964327082991],[107.35654557232236,-6.948980925148411],[107.35654764064441,-6.94899940793853],[107.35653551907993,-6.949032276293925],[107.35652607170908,-6.949058497855676],[107.35651863216873,-6.94907856207058],[107.35651146891028,-6.949097326909851],[107.35650848734099,-6.94910538950399],[107.35650510573174,-6.949115308891134],[107.35650224545391,-6.949122311640297],[107.35649744075076,-6.949135711266964],[107.35649408157829,-6.94914437313412],[107.35648476301725,-6.949169621303213],[107.35641358240017,-6.949267368492971],[107.35634968984996,-6.949317360591928],[107.35629789218336,-6.949312850758578],[107.35627825245284,-6.949286159517142],[107.35623062235003,-6.949220640758597],[107.35631306675316,-6.949098139927659],[107.35641185861115,-6.949085867867062],[107.35644533042068,-6.949032978278509],[107.35644944683307,-6.948980306834915],[107.35646100027965,-6.948832475021173]]]]}},{"type":"Feature","properties":{"fid":9,"id":"","NAMA":"IIP PERMANA2","DESA":"SARINAGEN","KODE PETA":"SRG-003","NIB":"3267","LUAS":"375","layer":"Iip_Permana","path":"C:/Users/hp/Downloads/BhumiAtr-20260813T181010Z-1-001/BhumiAtr/Iip_Permana.json|layername=Iip_Permana","LUAS2":376,"PENGUNAAN":"PERTANIAN","LUAS_NEW":376.276880621037},"geometry":{"type":"MultiPolygon","coordinates":[[[[107.35667662090245,-6.948769087599957],[107.35659028234056,-6.949022591530266],[107.35648476301725,-6.949169621303213],[107.35654764064441,-6.94899940793853],[107.3565319205826,-6.94885976527766],[107.35653681384105,-6.948756460178444],[107.35655734498857,-6.948714051252082],[107.35660160143664,-6.948749662292329],[107.35663534485735,-6.948765765956011],[107.35666507112853,-6.948765957566948],[107.35667662090245,-6.948769087599957]]]]}},{"type":"Feature","properties":{"fid":11,"id":"","NAMA":"OPING","DESA":"SARINAGEN","KODE PETA":"SRG-008","NIB":"3262","LUAS":"314","layer":"Oping","path":"C:/Users/hp/Downloads/BhumiAtr-20260813T181010Z-1-001/BhumiAtr/Oping.json|layername=Oping","LUAS2":315,"PENGUNAAN":"PERTANIAN","LUAS_NEW":314.91073337662965},"geometry":{"type":"MultiPolygon","coordinates":[[[[107.35702674701167,-6.948565103110113],[107.35700152794084,-6.948697175105195],[107.35678991644824,-6.948627053985334],[107.35681822137684,-6.94852751898236],[107.35702674701167,-6.948565103110113]]]]}},{"type":"Feature","properties":{"fid":12,"id":"","NAMA":"ROMLAH","DESA":"SARINAGEN","KODE PETA":"SRG-006","NIB":"3266","LUAS":"244","layer":"Romlah","path":"C:/Users/hp/Downloads/BhumiAtr-20260813T181010Z-1-001/BhumiAtr/Romlah.json|layername=Romlah","LUAS2":244,"PENGUNAAN":"PERTANIAN","LUAS_NEW":242.9260592294304},"geometry":{"type":"MultiPolygon","coordinates":[[[[107.35689948642744,-6.948829323594879],[107.3567344617797,-6.948985762311267],[107.3567105165261,-6.948977811771159],[107.35670671082461,-6.948955223998113],[107.35678725740733,-6.948866171495538],[107.3567746113783,-6.94882544266085],[107.35677441803972,-6.948682889391179],[107.35689948642744,-6.948829323594879]]]]}},{"type":"Feature","properties":{"fid":14,"id":"","NAMA":"YAYAH ROKAYAH","DESA":"SARINAGEN","KODE PETA":"SRG-010","NIB":"3259","LUAS":"1817","layer":"yayah1","path":"C:/Users/hp/Downloads/BhumiAtr-20260813T181010Z-1-001/BhumiAtr/yayah2.json|layername=yayah2","LUAS2":2027,"PENGUNAAN":"PERTANIAN","LUAS_NEW":2022.4063954565863},"geometry":{"type":"MultiPolygon","coordinates":[[[[107.3571129870375,-6.947877828723203],[107.35708112828979,-6.948488593815796],[107.35706154068123,-6.948524148087827],[107.35703592860388,-6.948519408585274],[107.357047829034,-6.948460181591494],[107.3568252521348,-6.948436327287908],[107.35683152619987,-6.948403596873831],[107.35676604762278,-6.948386375268669],[107.35675541435148,-6.948438595616153],[107.35659988916552,-6.948367457701153],[107.35663873453603,-6.948174117752572],[107.35679150918912,-6.948192068476146],[107.3568061824724,-6.948176508997783],[107.35685137517802,-6.948128433653233],[107.35685220395872,-6.948127547627557],[107.35685320122103,-6.948126481445385],[107.35685420963286,-6.948125410959126],[107.35685857281022,-6.948121052770361],[107.3568841250236,-6.948095572614011],[107.35690235572156,-6.948077416772021],[107.35693212696026,-6.948046868449557],[107.35696181314444,-6.94801621781247],[107.35697567449584,-6.948001909243628],[107.35698004510648,-6.947997393646993],[107.35698428687826,-6.947993013321462],[107.3569849001017,-6.947992378776829],[107.35698884455304,-6.947988384588877],[107.35700287441246,-6.947975898611767],[107.3571129870375,-6.947877828723203]]]]}}]}