{
"type": "FeatureCollection",
"name": "shm_srg",
"crs": { "type": "name", "properties": { "name": "urn:ogc:def:crs:OGC:1.3:CRS84" } },
"features": [
{"type":"Feature","properties":{"fid":2.0,"id":"RCQCrjdfhVa1LJznGvk3Q4v3FuYhZGW0","NAMA":"ARIF","DESA":"SARINAGEN","KODE PETA":"SRG-013","NIB":"SHM","LUAS":"82","layer":"ARIF1","path":"C:/Users/hp/Downloads/BhumiAtr-20260813T181010Z-1-001/BhumiAtr/H_Rahmat.json|layername=H_Rahmat","LUAS2":84,"PENGUNAAN":"PERMUKIMAN","LUAS_NEW":83.671223888755776},"geometry":{"type":"MultiPolygon","coordinates":[[[[107.357052101978368,-6.947773782488693],[107.356982631402047,-6.947762338665072],[107.356911915293097,-6.947756092336817],[107.356925613377697,-6.94769684523343],[107.356993418604418,-6.947697495826986],[107.35705790725946,-6.947774754442857],[107.357052101978368,-6.947773782488693]]]]}},
{"type":"Feature","properties":{"fid":3.0,"id":"qheerBEY4vr6L6K0xiiorwH2C0Z8DXMe","NAMA":"ASEP NANDANG","DESA":"SARINAGEN","KODE PETA":"SRG-007","NIB":"3263","LUAS":"272","layer":"Asep_Nandang","path":"C:/Users/hp/Downloads/BhumiAtr-20260813T181010Z-1-001/BhumiAtr/Asep_Nandang.json|layername=Asep_Nandang","LUAS2":270,"PENGUNAAN":"PERTANIAN","LUAS_NEW":271.02624287945218},"geometry":{"type":"MultiPolygon","coordinates":[[[[107.357001527940838,-6.948697175105195],[107.356899486427437,-6.948829323594879],[107.35677441803972,-6.948682889391179],[107.356789916448236,-6.948627053985334],[107.357001527940838,-6.948697175105195]]]]}},
{"type":"Feature","properties":{"fid":7.0,"id":"4IXSZB3d5693AJVc7dgz9J8hGL5VvZVf","NAMA":"HOLID","DESA":"SARINAGEN","KODE PETA":"SRG-004","NIB":"3268","LUAS":"305","layer":"Holid (1)","path":"C:/Users/hp/Downloads/BhumiAtr-20260813T181010Z-1-001/BhumiAtr/Holid (1).json|layername=Holid (1)","LUAS2":307,"PENGUNAAN":"PERTANIAN","LUAS_NEW":306.38833862275351},"geometry":{"type":"MultiPolygon","coordinates":[[[[107.356787259884968,-6.948866171495536],[107.356706715080293,-6.948955189711356],[107.356710526436771,-6.948977811771158],[107.356734461786544,-6.948985762315305],[107.356590282340562,-6.949022591530266],[107.356676620902448,-6.948769087599957],[107.356695118448215,-6.948773877101189],[107.356774566085846,-6.94882533417622],[107.356787259884968,-6.948866171495536]]]]}},
{"type":"Feature","properties":{"fid":9.0,"id":"By3lthorxJMdqFF6GZqjyR3Avjl5J0xn","NAMA":"IIP PERMANA2","DESA":"SARINAGEN","KODE PETA":"SRG-003","NIB":"3267","LUAS":"375","layer":"Iip_Permana","path":"C:/Users/hp/Downloads/BhumiAtr-20260813T181010Z-1-001/BhumiAtr/Iip_Permana.json|layername=Iip_Permana","LUAS2":376,"PENGUNAAN":"PERTANIAN","LUAS_NEW":376.27688062103698},"geometry":{"type":"MultiPolygon","coordinates":[[[[107.356676620902448,-6.948769087599957],[107.356590282340562,-6.949022591530266],[107.356484763017249,-6.949169621303213],[107.356547640644408,-6.94899940793853],[107.356531920582597,-6.94885976527766],[107.356536813841046,-6.948756460178444],[107.356557344988573,-6.948714051252082],[107.356601601436637,-6.948749662292329],[107.356635344857352,-6.948765765956011],[107.356665071128532,-6.948765957566948],[107.356676620902448,-6.948769087599957]]]]}},
{"type":"Feature","properties":{"fid":10.0,"id":"6wwWERQUBr5r6E0xL1B4tavaeNVh3P8o","NAMA":"MISRIAH","DESA":"SARINAGEN","KODE PETA":"SRG-014","NIB":"3235","LUAS":"120","layer":"misriah","path":"C:/Users/hp/Downloads/misriah.json|layername=misriah","LUAS2":121,"PENGUNAAN":"PERMUKIMAN","LUAS_NEW":120.39619466211298},"geometry":{"type":"MultiPolygon","coordinates":[[[[107.356865931079369,-6.947599465780243],[107.357008829645849,-6.947677312408757],[107.357033417147591,-6.947645957485577],[107.357037908905895,-6.947648457106716],[107.356996254238993,-6.947694425568233],[107.356993418604418,-6.947697495826986],[107.356955921764794,-6.947697160147989],[107.356919717897469,-6.947696672828993],[107.356863065561868,-6.947685042038742],[107.356841485990458,-6.947672384108827],[107.356831677094078,-6.947645120872764],[107.356865931079369,-6.947599465780243]]]]}},
{"type":"Feature","properties":{"fid":11.0,"id":"qezXtXNDNVFwH2Fl3JPFifcHMYIbc1Pm","NAMA":"OPING","DESA":"SARINAGEN","KODE PETA":"SRG-008","NIB":"3262","LUAS":"314","layer":"Oping","path":"C:/Users/hp/Downloads/BhumiAtr-20260813T181010Z-1-001/BhumiAtr/Oping.json|layername=Oping","LUAS2":315,"PENGUNAAN":"PERTANIAN","LUAS_NEW":314.91073337662965},"geometry":{"type":"MultiPolygon","coordinates":[[[[107.357026747011673,-6.948565103110113],[107.357001527940838,-6.948697175105195],[107.356789916448236,-6.948627053985334],[107.356818221376841,-6.94852751898236],[107.357026747011673,-6.948565103110113]]]]}},
{"type":"Feature","properties":{"fid":12.0,"id":"vcXCNKhIn0f1HZImM6Eep9j858s5qoud","NAMA":"ROMLAH","DESA":"SARINAGEN","KODE PETA":"SRG-006","NIB":"3266","LUAS":"244","layer":"Romlah","path":"C:/Users/hp/Downloads/BhumiAtr-20260813T181010Z-1-001/BhumiAtr/Romlah.json|layername=Romlah","LUAS2":244,"PENGUNAAN":"PERTANIAN","LUAS_NEW":242.92605922943039},"geometry":{"type":"MultiPolygon","coordinates":[[[[107.356899486427437,-6.948829323594879],[107.356734461779695,-6.948985762311267],[107.356710516526107,-6.948977811771159],[107.356706710824611,-6.948955223998113],[107.356787257407333,-6.948866171495538],[107.356774611378299,-6.94882544266085],[107.35677441803972,-6.948682889391179],[107.356899486427437,-6.948829323594879]]]]}},
{"type":"Feature","properties":{"fid":14.0,"id":"RUUb2JXRGzOa1urcwKVtwhsqmDcNzjX6","NAMA":"YAYAH ROKAYAH","DESA":"SARINAGEN","KODE PETA":"SRG-010","NIB":"3259","LUAS":"1817","layer":"yayah1","path":"C:/Users/hp/Downloads/BhumiAtr-20260813T181010Z-1-001/BhumiAtr/yayah2.json|layername=yayah2","LUAS2":2027,"PENGUNAAN":"PERTANIAN","LUAS_NEW":2022.4063954565863},"geometry":{"type":"MultiPolygon","coordinates":[[[[107.357112987037496,-6.947877828723203],[107.357081128289792,-6.948488593815796],[107.357061540681229,-6.948524148087827],[107.357035928603878,-6.948519408585274],[107.357047829034002,-6.948460181591494],[107.356825252134797,-6.948436327287908],[107.356831526199869,-6.948403596873831],[107.356766047622784,-6.948386375268669],[107.356755414351483,-6.948438595616153],[107.356599889165523,-6.948367457701153],[107.356638734536034,-6.948174117752572],[107.356791509189122,-6.948192068476146],[107.356806182472397,-6.948176508997783],[107.356851375178024,-6.948128433653233],[107.356852203958724,-6.948127547627557],[107.356853201221028,-6.948126481445385],[107.356854209632857,-6.948125410959126],[107.356858572810225,-6.948121052770361],[107.356884125023598,-6.948095572614011],[107.356902355721559,-6.948077416772021],[107.35693212696026,-6.948046868449557],[107.356961813144437,-6.94801621781247],[107.356975674495843,-6.948001909243628],[107.356980045106482,-6.947997393646993],[107.356984286878259,-6.947993013321462],[107.356984900101693,-6.947992378776829],[107.356988844553044,-6.947988384588877],[107.357002874412458,-6.947975898611767],[107.357112987037496,-6.947877828723203]]]]}},
{"type":"Feature","properties":{"fid":15.0,"id":"quFDM0cEpJPiWU3VT8cwdJJGXkDDZdxS","NAMA":"YAYAH ROKAYAH","DESA":"SARINAGEN","KODE PETA":"SRG-011","NIB":"3241","LUAS":"508","layer":"Yayah2","path":"C:/Users/hp/Downloads/BhumiAtr-20260813T181010Z-1-001/BhumiAtr/Yayah.json|layername=Yayah","LUAS2":633,"PENGUNAAN":"PERKEBUNAN","LUAS_NEW":631.99656638680619},"geometry":{"type":"MultiPolygon","coordinates":[[[[107.357112987037496,-6.947877828723203],[107.356988224179076,-6.947988946586548],[107.356979529309584,-6.947997926598287],[107.356911423994703,-6.948068346229199],[107.356854234409525,-6.948125376526492],[107.356813704679354,-6.948168692788729],[107.356791509189122,-6.948192068476146],[107.356684571018619,-6.948179503449819],[107.356790332220783,-6.948051474236223],[107.356897670929186,-6.948011617698228],[107.356953916823784,-6.947893496940608],[107.356943755592624,-6.947893721088207],[107.356980692885827,-6.947762167436638],[107.356982631402047,-6.947762338665072],[107.35705790725946,-6.947774754442857],[107.35705947829868,-6.947788731761102],[107.357087924349699,-6.947789521425272],[107.357126092682975,-6.947786852091953],[107.357112987037496,-6.947877828723203]]]]}}
]
}
