{"type":"FeatureCollection","name":"shm_ngl","crs":{"type":"name","properties":{"name":"urn:ogc:def:crs:EPSG::32748"}},"features":[{"type":"Feature","properties":{"fid":1,"NO":null,"NAMA":"IMAS MALIA","KET":"Area Tidak Terpakai","WILAYAH":"Cilalanang","LUAS_M2":1130.49336144,"Kode_Peta":"NGL-005","penggunaan":null,"alas hak":null,"luas alas":null,"keterangan":null,"KODE PETA":null},"geometry":{"type":"MultiPolygon","coordinates":[[[[107.35709820918301,-6.94959555609189,686.4088999999949],[107.3570617503133,-6.949620377717864,686.4088999999949],[107.35698064924406,-6.949617050754727,686.4088999999949],[107.35691759504579,-6.949663876047787,686.4088999999949],[107.35672975791847,-6.949867664782996,686.4088999999949],[107.35670142148265,-6.949841879217079,686.4088999999949],[107.3567189818671,-6.949808830397162,686.4088999999949],[107.3567306495783,-6.9497918742624085,686.4088999999949],[107.35673452614925,-6.949758419829907,686.4088999999949],[107.35666029615567,-6.949728692394845,686.4088999999949],[107.3566353431832,-6.949699253925221,686.4088999999949],[107.35661864784986,-6.949691524925204,686.4088999999949],[107.35660501718324,-6.949693037425239,686.4088999999949],[107.35659299568326,-6.949687632091905,686.4088999999949],[107.35659035668324,-6.949680570091879,686.4088999999949],[107.35656657551655,-6.949681146925242,686.4088999999949],[107.35655420184987,-6.94966701475858,343.20440000000235],[107.35654761816315,-6.949661302674229,0],[107.35654498847171,-6.9496522761032224,0],[107.35654521988457,-6.949641082997506,0],[107.3565464613499,-6.94963243709189,171.6021999999939],[107.3565583270166,-6.949612217591864,0],[107.35658431451265,-6.94958771633144,228.8029499999975],[107.35665395399593,-6.949637871999801,0],[107.3568010728123,-6.949440410273916,457.605899999995],[107.3568390485821,-6.949454392141715,686.4088999999949],[107.35704386500018,-6.949545664101114,686.4088999999949],[107.35709820918301,-6.94959555609189,686.4088999999949]]]]}},{"type":"Feature","properties":{"fid":3,"NO":null,"NAMA":"CUCU SOLIHAT","KET":"Area Tidak Terpakai","WILAYAH":"Cilalanang","LUAS_M2":46.4443101107,"Kode_Peta":"NGL-002","penggunaan":null,"alas hak":null,"luas alas":null,"keterangan":null,"KODE PETA":null},"geometry":{"type":"MultiPolygon","coordinates":[[[[107.35651010884992,-6.949571455925258,0],[107.35649703691195,-6.949575352380928,0],[107.35647980212532,-6.94957467287035,0],[107.35645832672411,-6.949568274993846,0],[107.35644930354137,-6.949563345685516,0],[107.35644340551659,-6.949558771758582,0],[107.35645602493072,-6.949495319691707,451.9753000000055],[107.35652426653098,-6.94954446862335,457.605899999995],[107.35650808784993,-6.949565996758553,686.4088999999949],[107.35651010884992,-6.949571455925258,0]]]]}},{"type":"Feature","properties":{"fid":11,"NO":null,"NAMA":"MISRIYAH","KET":"Area Tidak Terpakai","WILAYAH":"Cilalanang","LUAS_M2":1113.0910775,"Kode_Peta":"NGL-008","penggunaan":null,"alas hak":null,"luas alas":null,"keterangan":null,"KODE PETA":null},"geometry":{"type":"MultiPolygon","coordinates":[[[[107.35746231294372,-6.948648661734845,683.0378999999957],[107.3574743127104,-6.948667478352385,683.0378999999957],[107.35747435551114,-6.948691386411553,683.0378999999957],[107.35748377867937,-6.948709583131019,683.0378999999957],[107.35749542590816,-6.948729804744956,683.0378999999957],[107.35749805071342,-6.9487504132331654,683.0378999999957],[107.35749357023532,-6.9488202125876715,683.0378999999957],[107.35750562829794,-6.948830927862581,683.0378999999957],[107.35750439560586,-6.94884461052294,683.0378999999957],[107.35751707946169,-6.9488532473266,683.0378999999957],[107.35751279739014,-6.948869669128874,683.0378999999957],[107.35752931052603,-6.948951854715739,683.0378999999957],[107.35753469715176,-6.948980067187536,683.0378999999957],[107.35754429631925,-6.948994094379294,683.0378999999957],[107.35753858447522,-6.949007220865417,683.0378999999957],[107.357551778778,-6.9490254980316095,683.0378999999957],[107.35742970918282,-6.949009235591905,683.0378999999957],[107.35740714551619,-6.948988300091902,683.0378999999957],[107.3574033283495,-6.948979743758562,683.0378999999957],[107.35737825368288,-6.9489807520918765,683.0378999999957],[107.35735864334953,-6.948972565758586,683.0378999999957],[107.35728286801626,-6.949023845258597,679.8334000000032],[107.35726751034959,-6.949015536425272,679.8334000000032],[107.35724975505215,-6.949011752938924,679.8334000000032],[107.35724980198748,-6.949006520828515,679.8334000000032],[107.35720533375294,-6.948997259193834,679.8334000000032],[107.35714864939591,-6.949001225332482,679.8334000000032],[107.35714948755822,-6.948996661059862,679.8334000000032],[107.35712849660199,-6.949001091434052,679.8334000000032],[107.35712648189926,-6.948999486297948,453.222299999994],[107.35735903999586,-6.948668480999901,0],[107.35736160572087,-6.9486619393359375,455.35860000000685],[107.35740901677516,-6.948643894310819,683.0378999999957],[107.35746231294372,-6.948648661734845,683.0378999999957]]]]}},{"type":"Feature","properties":{"fid":16,"NO":null,"NAMA":"IDRIS","KET":"Area Tidak Terpakai","WILAYAH":"Cilalanang","LUAS_M2":160.734971269,"Kode_Peta":"NGL-009","penggunaan":null,"alas hak":null,"luas alas":null,"keterangan":null,"KODE PETA":null},"geometry":{"type":"MultiPolygon","coordinates":[[[[107.35746231294372,-6.948648661734845,683.0378999999957],[107.35740901677516,-6.948643894310819,683.0378999999957],[107.35736160572087,-6.9486619393359375,455.35860000000685],[107.35744414899587,-6.948451483999902,0],[107.35744339842626,-6.948385324476651,227.67930000000342],[107.3574473976772,-6.948385126431772,341.51900000000023],[107.35747617016155,-6.948569791683987,683.0378999999957],[107.35747700627276,-6.948596206361749,683.0378999999957],[107.35746231294372,-6.948648661734845,683.0378999999957]]]]}},{"type":"Feature","properties":{"fid":23,"NO":null,"NAMA":"IMAS MALIA","KET":"Area Terpakai","WILAYAH":"Cilalanang","LUAS_M2":163.14875059,"Kode_Peta":"NGL-005","penggunaan":"PERTANIAN","alas hak":"SHM","luas alas":"1345","keterangan":"TERKENA SEBAGIAN","KODE PETA":"NGL-005"},"geometry":{"type":"MultiPolygon","coordinates":[[[[107.3568010728123,-6.949440410273916,457.605899999995],[107.35665395399593,-6.949637871999818,0],[107.35658431451265,-6.9495877163314566,457.605899999995],[107.35664459984989,-6.949522884591831,686.4088999999949],[107.35667660034983,-6.949502019258603,686.4088999999949],[107.35676418834981,-6.949468649425201,686.4088999999949],[107.35677738128138,-6.949431687555753,686.4088999999949],[107.35677776534756,-6.949431828960761,686.4088999999949],[107.3568010728123,-6.949440410273916,457.605899999995]]]]}},{"type":"Feature","properties":{"fid":25,"NO":null,"NAMA":"CUCU SOLIHAT","KET":"Area Terpakai","WILAYAH":"Cilalanang","LUAS_M2":352.275444691,"Kode_Peta":"NGL-002","penggunaan":"PERTANIAN","alas hak":"SHM","luas alas":"828","keterangan":"TERKENA SEBAGIAN","KODE PETA":"NGL-002"},"geometry":{"type":"MultiPolygon","coordinates":[[[[107.35672143050876,-6.949370267196274,228.80299999999988],[107.35668112551656,-6.949409020258592,686.4088999999949],[107.35662234218326,-6.949457480925194,686.4088999999949],[107.35657517984993,-6.9495117779252205,686.4088999999949],[107.35652784801664,-6.94953970292527,686.4088999999949],[107.35652426653098,-6.949544468623385,457.605899999995],[107.35645602493072,-6.949495319691707,451.9753000000055],[107.35646075884996,-6.9494715169252155,676.6288999999961],[107.35653192001656,-6.949396981758535,676.6288999999961],[107.35661261351655,-6.9493156225919135,676.6288999999961],[107.35663116484987,-6.949293201091906,225.54300000000512],[107.35672143050876,-6.949370267196274,228.80299999999988]]]]}},{"type":"Feature","properties":{"fid":28,"NO":null,"NAMA":"AGUS MIFTAH FARID","KET":"Area Terpakai","WILAYAH":"Cilalanang","LUAS_M2":404.830566199,"Kode_Peta":"NGL-003","penggunaan":"PERTANIAN","alas hak":"SHM","luas alas":"828","keterangan":null,"KODE PETA":"NGL-003"},"geometry":{"type":"MultiPolygon","coordinates":[[[[107.35693152901642,-6.949144506258547,681.5188999999955],[107.35689200196259,-6.949185797387897,686.4088999999949],[107.35684052468314,-6.949238995091954,686.4088999999949],[107.35682807731942,-6.949264330304242,686.4088999999949],[107.35672143050873,-6.949370267196275,228.80299999999988],[107.35663116484987,-6.949293201091923,225.54300000000512],[107.35668183084982,-6.949236413091924,676.6288999999961],[107.35678589551645,-6.949150692258592,676.6288999999961],[107.35684609168312,-6.949121688925231,676.6288999999961],[107.35692503791007,-6.949099613321458,676.6288999999961],[107.35692530818305,-6.949100225425256,676.6288999999961],[107.35693152901642,-6.949144506258547,681.5188999999955]]]]}},{"type":"Feature","properties":{"fid":34,"NO":null,"NAMA":"MISRIYAH","KET":"Area Terpakai","WILAYAH":"Cilalanang","LUAS_M2":524.818087423,"Kode_Peta":"NGL-008","penggunaan":"PERTANIAN","alas hak":"SHM","luas alas":"1700","keterangan":"TERKENA SEBAGIAN","KODE PETA":"NGL-008"},"geometry":{"type":"MultiPolygon","coordinates":[[[[107.35712648189926,-6.948999486297948,453.222299999994],[107.35709499674786,-6.948974401723644,679.8334000000032],[107.35707753628601,-6.948952770228366,679.8334000000032],[107.35707592872828,-6.94893568880623,679.8334000000032],[107.35705242260589,-6.948927661208301,679.8334000000032],[107.357009001001,-6.948886597452927,679.8334000000032],[107.35713581334964,-6.948776745425234,683.0378999999957],[107.35721473218416,-6.948695726772008,683.0378999999957],[107.35727116263767,-6.948681208104167,683.0378999999957],[107.35732237596318,-6.9486768704902095,683.0378999999957],[107.35736160572087,-6.9486619393359375,455.35860000000685],[107.35735903999586,-6.948668480999901,0],[107.35712648189926,-6.948999486297948,453.222299999994]]]]}},{"type":"Feature","properties":{"fid":39,"NO":null,"NAMA":"IDRIS","KET":"Area Terpakai","WILAYAH":"Cilalanang","LUAS_M2":581.077288774,"Kode_Peta":"NGL-009","penggunaan":"PERTANIAN","alas hak":"SHM","luas alas":"711","keterangan":"TERKENA SEBAGIAN","KODE PETA":"NGL-009"},"geometry":{"type":"MultiPolygon","coordinates":[[[[107.35744339842626,-6.948385324476651,227.67930000000342],[107.35744414899587,-6.948451483999902,0],[107.35736160572087,-6.9486619393359375,455.35860000000685],[107.35732237596318,-6.9486768704902095,683.0378999999957],[107.35727116263767,-6.948681208104167,683.0378999999957],[107.35721473218416,-6.948695726772008,683.0378999999957],[107.35723499432044,-6.948623203303071,683.0378999999957],[107.35720519901625,-6.948624082925264,683.0378999999957],[107.357239451252,-6.948488086297888,683.0378999999957],[107.35724010400511,-6.948485494577051,683.0378999999957],[107.35725078486976,-6.948448219339842,341.51900000000023],[107.35731643856852,-6.948424321469465,683.0378999999957],[107.35735879813176,-6.948400248632333,683.0378999999957],[107.35736666575714,-6.948402037947883,683.0378999999957],[107.35737930153145,-6.94837926262152,227.67930000000342],[107.35740324273672,-6.948387313004089,341.51900000000023],[107.35742311401378,-6.948386328970151,341.51900000000023],[107.35744339842626,-6.948385324476651,227.67930000000342]]]]}}]}