{"type":"FeatureCollection","name":"sppt_pbb_ngl","crs":{"type":"name","properties":{"name":"urn:ogc:def:crs:EPSG::32748"}},"features":[{"type":"Feature","properties":{"fid":4,"NO":null,"NAMA":"H.ADE ALIAS A MUNIR SYARONI","KET":"Area Tidak Terpakai","WILAYAH":"Cilalanang","LUAS_M2":797.762947904,"Kode_Peta":"NGL-006","penggunaan":null,"alas hak":null,"luas alas":null,"keterangan":null,"KODE PETA":null},"geometry":{"type":"MultiPolygon","coordinates":[[[[107.35707669251634,-6.949247017258569,681.5188999999955],[107.35708808484966,-6.949335879925241,686.4088999999949],[107.35713931367836,-6.9494999432203315,686.4088999999949],[107.35709682433449,-6.9495443382898,686.4088999999949],[107.3570438650002,-6.949545664101132,686.4088999999949],[107.35683904858209,-6.94945439214175,686.4088999999949],[107.3568373083753,-6.949427079993197,686.4088999999949],[107.35683673264344,-6.949392547903927,457.605899999995],[107.35696897948057,-6.949215047067065,454.81200000000536],[107.35699522364557,-6.949218393364209,681.5188999999955],[107.35706480959756,-6.94923530980391,681.5188999999955],[107.35707669251634,-6.949247017258569,681.5188999999955]]]]}},{"type":"Feature","properties":{"fid":5,"NO":null,"NAMA":"SITI SARAH SOPIAH","KET":"Area Tidak Terpakai","WILAYAH":"Cilalanang","LUAS_M2":46.0998961392,"Kode_Peta":"NGL-004","penggunaan":null,"alas hak":null,"luas alas":null,"keterangan":null,"KODE PETA":null},"geometry":{"type":"MultiPolygon","coordinates":[[[[107.35658431451265,-6.94958771633144,0],[107.35655832701659,-6.949612217591864,0],[107.35655417339267,-6.949612233930513,0],[107.35653109036149,-6.949600785738536,0],[107.35652244746665,-6.949595328422366,0],[107.35652001375992,-6.949587209624283,0],[107.35651540830706,-6.9495755144668365,0],[107.35651010884992,-6.949571455925258,0],[107.35650808784993,-6.949565996758553,686.4088999999949],[107.35652426653098,-6.94954446862335,457.605899999995],[107.35658431451265,-6.94958771633144,0]]]]}},{"type":"Feature","properties":{"fid":6,"NO":null,"NAMA":"SITI SARAH SOPIAH","KET":"Area Tidak Terpakai","WILAYAH":"Cilalanang","LUAS_M2":46.0998961392,"Kode_Peta":"NGL-004","penggunaan":null,"alas hak":null,"luas alas":null,"keterangan":null,"KODE PETA":null},"geometry":{"type":"MultiPolygon","coordinates":[[[[107.35683730837533,-6.949427079993164,686.4088999999949],[107.3568390485821,-6.949454392141715,686.4088999999949],[107.3568010728123,-6.949440410273916,457.605899999995],[107.35683673264346,-6.949392547903927,457.605899999995],[107.35683730837533,-6.949427079993164,686.4088999999949]]]]}},{"type":"Feature","properties":{"fid":7,"NO":null,"NAMA":"H. AISYAH (ALM)/ AGUS MF","KET":"Area Tidak Terpakai","WILAYAH":"Cilalanang","LUAS_M2":35.0226492605,"Kode_Peta":"NGL-001","penggunaan":null,"alas hak":null,"luas alas":null,"keterangan":null,"KODE PETA":null},"geometry":{"type":"MultiPolygon","coordinates":[[[[107.35645602493072,-6.949495319691724,451.9753000000055],[107.3564434055166,-6.949558771758598,681.5188999999955],[107.35640887818327,-6.949537862258559,681.5188999999955],[107.35640549634992,-6.949509013925272,676.6288999999961],[107.35642072893701,-6.9494698988191805,338.31449999999313],[107.35645602493072,-6.949495319691724,451.9753000000055]]]]}},{"type":"Feature","properties":{"fid":8,"NO":null,"NAMA":"H CECEP ANWAR","KET":"Area Tidak Terpakai","WILAYAH":"Cilalanang","LUAS_M2":740.5094307909999,"Kode_Peta":"NGL-007","penggunaan":null,"alas hak":null,"luas alas":null,"keterangan":null,"KODE PETA":null},"geometry":{"type":"MultiPolygon","coordinates":[[[[107.35728286801626,-6.949023845258597,679.8334000000032],[107.35730374668299,-6.949052113425238,676.6288999999961],[107.35731996744587,-6.949071197435966,676.6288999999961],[107.35732644249669,-6.949069428695098,676.6288999999961],[107.3573384805992,-6.949083380780815,676.6288999999961],[107.3573057296829,-6.949144438591915,676.6288999999961],[107.35720189102472,-6.9492780463845785,676.6288999999961],[107.35713250028418,-6.9492392966360015,676.6288999999961],[107.35710680426673,-6.949237924746037,676.6288999999961],[107.35707669251634,-6.949247017258569,681.5188999999955],[107.35706480959756,-6.94923530980391,681.5188999999955],[107.35699522364557,-6.949218393364209,681.5188999999955],[107.35696897948057,-6.949215047067065,454.81200000000536],[107.3570751809959,-6.949072503999874,0],[107.35712648189926,-6.948999486297948,453.222299999994],[107.35712849660199,-6.949001091434052,679.8334000000032],[107.35714948755822,-6.948996661059862,679.8334000000032],[107.35714864939591,-6.949001225332482,679.8334000000032],[107.35720533375294,-6.948997259193834,679.8334000000032],[107.35724980198748,-6.949006520828515,679.8334000000032],[107.35724975505215,-6.949011752938924,679.8334000000032],[107.35726751034959,-6.949015536425272,679.8334000000032],[107.35728286801626,-6.949023845258597,679.8334000000032]]]]}},{"type":"Feature","properties":{"fid":26,"NO":null,"NAMA":"H.ADE ALIAS A MUNIR SYARONI","KET":"Area Terpakai","WILAYAH":"Cilalanang","LUAS_M2":50.5312576994,"Kode_Peta":"NGL-006","penggunaan":"PERTANIAN","alas hak":"SPPT","luas alas":null,"keterangan":"TERKENA SEBAGIAN","KODE PETA":"NGL-006"},"geometry":{"type":"MultiPolygon","coordinates":[[[[107.35696897948057,-6.949215047067065,454.81200000000536],[107.35683673264344,-6.949392547903927,457.605899999995],[107.35683645139007,-6.949375678455034,686.4088999999949],[107.3568672427019,-6.949325861685529,686.4088999999949],[107.35693403743456,-6.949210591732588,683.1489000000001],[107.35696897948057,-6.949215047067065,454.81200000000536]]]]}},{"type":"Feature","properties":{"fid":27,"NO":null,"NAMA":"SITI SARAH SOPIAH","KET":"Area Terpakai","WILAYAH":"Cilalanang","LUAS_M2":493.951211415,"Kode_Peta":"NGL-004","penggunaan":"PERTANIAN","alas hak":"SPPT","luas alas":"300","keterangan":"TERKENA SEBAGIAN","KODE PETA":"NGL-004"},"geometry":{"type":"MultiPolygon","coordinates":[[[[107.35683673264346,-6.949392547903927,457.605899999995],[107.3568010728123,-6.949440410273916,457.605899999995],[107.35677776534756,-6.949431828960761,686.4088999999949],[107.35676418834981,-6.949468649425201,686.4088999999949],[107.35667660034983,-6.949502019258603,686.4088999999949],[107.35664459984989,-6.949522884591831,686.4088999999949],[107.35658431451265,-6.9495877163314566,457.605899999995],[107.35652426653098,-6.949544468623385,457.605899999995],[107.35652784801664,-6.94953970292527,686.4088999999949],[107.35657517984993,-6.9495117779252205,686.4088999999949],[107.35662234218326,-6.949457480925194,686.4088999999949],[107.35668112551656,-6.949409020258592,686.4088999999949],[107.35672143050876,-6.949370267196274,228.80299999999988],[107.35682807731943,-6.949264330304225,686.4088999999949],[107.35684052468316,-6.949238995091936,686.4088999999949],[107.3568920019626,-6.94918579738788,686.4088999999949],[107.35693152901646,-6.949144506258562,681.5188999999955],[107.3569340374346,-6.94921059173257,683.1489000000001],[107.35686724270191,-6.949325861685511,686.4088999999949],[107.3568364513901,-6.949375678455051,686.4088999999949],[107.35683673264346,-6.949392547903927,457.605899999995]]]]}},{"type":"Feature","properties":{"fid":29,"NO":null,"NAMA":"H. AISYAH (ALM)/ AGUS MF","KET":"Area Terpakai","WILAYAH":"Cilalanang","LUAS_M2":394.898320654,"Kode_Peta":"NGL-001","penggunaan":"TEGALAN","alas hak":"SPPT","luas alas":"430","keterangan":"TERKENA SEBAGIAN","KODE PETA":"NGL-001"},"geometry":{"type":"MultiPolygon","coordinates":[[[[107.35692503791007,-6.949099613321458,676.6288999999961],[107.35684609168312,-6.949121688925231,676.6288999999961],[107.35678589551645,-6.949150692258592,676.6288999999961],[107.35668183084982,-6.949236413091924,676.6288999999961],[107.35663116484987,-6.949293201091923,225.54300000000512],[107.35661261351655,-6.9493156225919135,676.6288999999961],[107.35653192001656,-6.949396981758535,676.6288999999961],[107.35646075884995,-6.949471516925231,676.6288999999961],[107.35645602493072,-6.949495319691724,451.9753000000055],[107.35642072893701,-6.9494698988191805,338.31449999999313],[107.35644078368327,-6.949418401091896,676.6288999999961],[107.35650220501658,-6.949339822425259,676.6288999999961],[107.35660125818319,-6.949263950425215,676.6288999999961],[107.35675476134979,-6.949121143091938,676.6288999999961],[107.35688762584972,-6.949014883925242,676.6288999999961],[107.35692503791007,-6.949099613321458,676.6288999999961]]]]}},{"type":"Feature","properties":{"fid":30,"NO":null,"NAMA":"H CECEP ANWAR","KET":"Area Terpakai","WILAYAH":"Cilalanang","LUAS_M2":497.607929605,"Kode_Peta":"NGL-007","penggunaan":"PERTANIAN","alas hak":"SPPT","luas alas":"1982","keterangan":"TERKENA SEBAGIAN","KODE PETA":"NGL-007"},"geometry":{"type":"MultiPolygon","coordinates":[[[[107.35712648189926,-6.948999486297948,453.222299999994],[107.3570751809959,-6.949072503999874,0],[107.35696897948057,-6.949215047067065,454.81200000000536],[107.35693403743456,-6.949210591732588,683.1489000000001],[107.35693152901642,-6.949144506258547,681.5188999999955],[107.35692530818305,-6.949100225425256,676.6288999999961],[107.35692503791007,-6.949099613321458,676.6288999999961],[107.35688762584972,-6.949014883925242,676.6288999999961],[107.357009001001,-6.948886597452927,679.8334000000032],[107.35705242260589,-6.948927661208301,679.8334000000032],[107.35707592872828,-6.94893568880623,679.8334000000032],[107.35707753628601,-6.948952770228366,679.8334000000032],[107.35709499674786,-6.948974401723644,679.8334000000032],[107.35712648189926,-6.948999486297948,453.222299999994]]]]}},{"type":"Feature","properties":{"fid":40,"NO":null,"NAMA":"H TAJUL","KET":"Area Terpakai","WILAYAH":"Cilalanang","LUAS_M2":660.30991043,"Kode_Peta":"NGL-010","penggunaan":"PERTANIAN","alas hak":"SPPT","luas alas":"660","keterangan":"TERKENA SELURUHNYA","KODE PETA":"NGL-010"},"geometry":{"type":"MultiPolygon","coordinates":[[[[107.35737930153145,-6.94837926262152,227.67930000000342],[107.35736666575714,-6.948402037947883,683.0378999999957],[107.35735879813176,-6.948400248632333,683.0378999999957],[107.35731643856852,-6.948424321469465,683.0378999999957],[107.35725078486976,-6.948448219339842,341.51900000000023],[107.3572472560929,-6.948248859905766,0],[107.35725503678127,-6.948105463521838,0],[107.35722229382837,-6.948032419466119,0],[107.35724668911432,-6.94790964776676,0],[107.35735208968288,-6.9478904479252686,0],[107.3573150771426,-6.9480802879957,0],[107.35733528914359,-6.948092819770056,0],[107.35733184019671,-6.948184097573603,0],[107.35735892034859,-6.948269306425338,0],[107.35738809460408,-6.948329044762787,0],[107.35737930153145,-6.94837926262152,227.67930000000342]]]]}}]}