{
"type": "FeatureCollection",
"name": "sppt_pbb_srg",
"crs": { "type": "name", "properties": { "name": "urn:ogc:def:crs:OGC:1.3:CRS84" } },
"features": [
{"type":"Feature","properties":{"fid":1.0,"id":"y6CdSXSxCDiFPk0b1Flx73QITY4gHCUw","NAMA":"AAS","DESA":"SARINAGEN","KODE PETA":"SRG-009","NIB":"SPPT","LUAS":"263.53","layer":"Aas","path":"C:/Users/hp/Downloads/BhumiAtr-20260813T181010Z-1-001/BhumiAtr/Aas.json|layername=Aas","LUAS2":264,"PENGUNAAN":"PERTANIAN","LUAS_NEW":263.584148868802},"geometry":{"type":"MultiPolygon","coordinates":[[[[107.357047829034002,-6.948460181591494],[107.357026747011673,-6.948565103110113],[107.356818221376841,-6.94852751898236],[107.356825252134797,-6.948436327287908],[107.357047829034002,-6.948460181591494]]]]}},
{"type":"Feature","properties":{"fid":4.0,"id":null,"NAMA":"H RAHMAT","DESA":"SARINAGEN","KODE PETA":"SRG-012","NIB":null,"LUAS":"50.65","layer":"H RAHMAT","path":"C:/2026/larap cilanang-cijambu/ANYAR/H RAHMAT.shp","LUAS2":48,"PENGUNAAN":"PERKEBUNAN","LUAS_NEW":50.653620729022805},"geometry":{"type":"MultiPolygon","coordinates":[[[[107.357005184167662,-6.947684570849062],[107.357010828082764,-6.947689346406807],[107.357067945750273,-6.947737688651602],[107.357111461021688,-6.947774495751855],[107.35711727233668,-6.947779401858378],[107.357123754932573,-6.94778486788262],[107.3571259614978,-6.947786741302518],[107.357126092683018,-6.947786852091333],[107.357087924349699,-6.947789521425272],[107.35705947829868,-6.947788731761102],[107.357057910526521,-6.947774762659918],[107.357055656175177,-6.947772063844087],[107.357029551439453,-6.947740779302186],[107.357005854999315,-6.947712387102917],[107.356995573365154,-6.947700078693894],[107.356993418604418,-6.947697495826986],[107.356996249250543,-6.947694420088023],[107.357005184167662,-6.947684570849062]]]]}},
{"type":"Feature","properties":{"fid":5.0,"id":"qQCoCc9lnJan9FVL5QM7xhCLcbR3K6Vd","NAMA":"H ENI","DESA":"SARINAGEN","KODE PETA":"SRG-005","NIB":"SPPT","LUAS":"211.86","layer":"H._Eni","path":"C:/Users/hp/Downloads/BhumiAtr-20260813T181010Z-1-001/BhumiAtr/H._Eni.json|layername=H._Eni","LUAS2":212,"PENGUNAAN":"PERTANIAN","LUAS_NEW":211.04622024034325},"geometry":{"type":"MultiPolygon","coordinates":[[[[107.356781407315438,-6.94865770539514],[107.35677441803972,-6.948682889391179],[107.356774611378299,-6.94882544266085],[107.356695118448215,-6.948773877101189],[107.356664964670131,-6.948766061119017],[107.356669544938484,-6.948735067763465],[107.356662336500904,-6.948704448924602],[107.356678983111692,-6.94860904139837],[107.356781407315438,-6.94865770539514]]]]}},
{"type":"Feature","properties":{"fid":6.0,"id":"4PBHyREwD1it1SzW8x5QpVYCAieFwWIR","NAMA":"HALIM RUSMANA","DESA":"NEGLASARI","KODE PETA":"SRG-001","NIB":"0","LUAS":"635.14","layer":"HALIM","path":"C:/2026/larap cilanang-cijambu/New maps18/HALIM.json|layername=HALIM","LUAS2":635,"PENGUNAAN":"PERTANIAN","LUAS_NEW":635.13919977843761},"geometry":{"type":"MultiPolygon","coordinates":[[[[107.356297892183363,-6.949312850758578],[107.356349689849964,-6.949317360591928],[107.356323353906873,-6.949385837442547],[107.356276576449446,-6.949504208254884],[107.356008544278609,-6.949198222021298],[107.356088965460202,-6.949129493029886],[107.356230622350026,-6.949220640758597],[107.356297892183363,-6.949312850758578]]]]}},
{"type":"Feature","properties":{"fid":8.0,"id":null,"NAMA":"IIP PERMANA2","DESA":"SARINAGEN","KODE PETA":"SRG-002","NIB":null,"LUAS":"875.8","layer":"IIP PERMANA2","path":"C:/2026/larap cilanang-cijambu/akhir maping report/13-8-2026/sarinagen/IIP PERMANA2.shp","LUAS2":876,"PENGUNAAN":"PERTANIAN","LUAS_NEW":875.60616316302912},"geometry":{"type":"MultiPolygon","coordinates":[[[[107.356461000279651,-6.948832475021173],[107.356468982849933,-6.948730334258609],[107.356498619154607,-6.948725654107519],[107.356513715052273,-6.948723270170563],[107.356528301776152,-6.948720966642089],[107.356557344988573,-6.948714051252082],[107.356536813841046,-6.948756460178444],[107.356535432569643,-6.948799810825117],[107.35653361692458,-6.948826301065296],[107.356531920582597,-6.94885976527766],[107.356535160946294,-6.948890451318324],[107.35653761849558,-6.948909883174008],[107.356541183275354,-6.94894236071288],[107.356543649032133,-6.948964327082991],[107.356545572322361,-6.948980925148411],[107.356547640644408,-6.94899940793853],[107.356535519079927,-6.949032276293925],[107.356526071709084,-6.949058497855676],[107.356518632168729,-6.94907856207058],[107.356511468910284,-6.949097326909851],[107.356508487340989,-6.94910538950399],[107.356505105731742,-6.949115308891134],[107.35650224545391,-6.949122311640297],[107.356497440750758,-6.949135711266964],[107.35649408157829,-6.94914437313412],[107.356484763017249,-6.949169621303213],[107.356413582400165,-6.949267368492971],[107.356349689849964,-6.949317360591928],[107.356297892183363,-6.949312850758578],[107.356278252452839,-6.949286159517142],[107.356230622350026,-6.949220640758597],[107.35631306675316,-6.949098139927659],[107.356411858611153,-6.949085867867062],[107.356445330420684,-6.949032978278509],[107.356449446833068,-6.948980306834915],[107.356461000279651,-6.948832475021173]]]]}}
]
}
