{
"type": "FeatureCollection",
"name": "surat_perjanjian_jualbeli_ngl",
"crs": { "type": "name", "properties": { "name": "urn:ogc:def:crs:EPSG::32748" } },
"features": [
{"type":"Feature","properties":{"fid":17.0,"NO":null,"NAMA":"H ENI","KET":"Area Tidak Terpakai","WILAYAH":"Cilalanang","LUAS_M2":332.04702778500001,"Kode_Peta":"NGL-011","penggunaan":null,"alas hak":null,"luas alas":null,"keterangan":null,"KODE PETA":null},"geometry":{"type":"MultiPolygon","coordinates":[[[[760482.828388897585683,9231308.414156764745712,341.519000000000233],[760482.386144348420203,9231308.394447531551123,227.679300000003423],[760482.359154480160214,9231312.641129426658154,0.0],[760482.368381056003273,9231354.108355870470405,0.0],[760485.52077040518634,9231346.339463975280523,0.0],[760496.933962485287338,9231316.080309858545661,0.0],[760488.88157796068117,9231312.559768468141556,0.0],[760482.828388897585683,9231308.414156764745712,341.519000000000233]]]]}},
{"type":"Feature","properties":{"fid":41.0,"NO":null,"NAMA":"H ENI","KET":"Area Terpakai","WILAYAH":"Cilalanang","LUAS_M2":556.56249982899999,"Kode_Peta":"NGL-011","penggunaan":"PERTANIAN, KANDANG AYAM","alas hak":"SURAT PERJANJIAN","luas alas":"800","keterangan":null,"KODE PETA":"NGL-011"},"geometry":{"type":"MultiPolygon","coordinates":[[[[760482.368381056003273,9231354.108355870470405,0.0],[760482.359154480160214,9231312.641129426658154,0.0],[760482.386144348420203,9231308.394447531551123,227.679300000003423],[760480.143056599306874,9231308.294481268152595,341.519000000000233],[760477.945654170238413,9231308.196551041677594,341.519000000000233],[760475.303280702675693,9231309.100409517064691,227.679300000003423],[760476.303065275191329,9231314.651561301201582,0.0],[760473.110633614240214,9231321.276942048221827,0.0],[760470.16374743974302,9231330.719170790165663,0.0],[760470.595336296828464,9231340.816046426072717,0.0],[760468.367710849503055,9231342.213662074878812,0.0],[760472.564214107114822,9231363.196770627051592,0.0],[760479.822150712134317,9231360.383401900529861,0.0],[760482.368381056003273,9231354.108355870470405,0.0]]]]}}
]
}
