{"type": "FeatureCollection", "features": [{"type": "Feature", "properties": {"id": null, "NAMA": "TN", "DESA": "SARINAGEN", "KODEPETA": "NGL-012", "LUAS": 341.62}, "geometry": {"type": "MultiPolygon", "coordinates": [[[[107.35744115428128, -6.947972088257635], [107.3574178566715, -6.947915547568713], [107.3573792084104, -6.947900725985843], [107.35735208564635, -6.947890442730129], [107.3573325701369, -6.947894104764038], [107.35732388247963, -6.947895596087231], [107.35729005849433, -6.947901717666718], [107.35727204051702, -6.94790498508302], [107.3572467415677, -6.947909294348261], [107.35726730819536, -6.947868162713335], [107.35727180935855, -6.947850521853175], [107.35728321406134, -6.947804568606807], [107.3572865192291, -6.947789266736438], [107.35728966738971, -6.947774770143357], [107.35729575606271, -6.947752575981731], [107.35736917423066, -6.947793576831236], [107.35744054503093, -6.947833687823207], [107.35744089143695, -6.947903194546694], [107.35744115428128, -6.947972088257635]]]]}}]}