{"type": "FeatureCollection", "features": [{"type": "Feature", "properties": {"id": "j3PZA24cY8651a5Rl99f9RcuZ3gYQSAb", "NAMA": "PLN", "DESA": "SARINAGEN", "KODE PETA": "SRG-015", "luas": 947.11, "LUAS1": 944.84, "LUAS89": 944.84}, "geometry": {"type": "Polygon", "coordinates": [[[107.35712202033773, -6.947532173141397], [107.35705399654151, -6.947616578538977], [107.35708210444045, -6.947632721231021], [107.35716640268598, -6.947679975392691], [107.35712609268298, -6.947786852091953], [107.35711069141914, -6.947773947274023], [107.35700518416766, -6.947684570849062], [107.35703790391744, -6.947648451626506], [107.35703341714759, -6.947645957485577], [107.35700882964585, -6.947677312408757], [107.3566619831119, -6.947488357212563], [107.35679734587825, -6.947380277903562], [107.35712202033773, -6.947532173141397]]]}}]}